OBJECTID,OrganizationId,ESDCode,ESDNum,ESDName,LEACode,LEAName,ShortName,Label,PhysicalAddress,MailingAddress,AdministratorName,AdministratorEmail,Phone,Website,County,Counties,CongressionalDistricts,LegislativeDistricts,Type,TransportationRegion,Shape__Area,Shape__Length
1,100287,32801,101,Educational Service District 101,01109,Washtucna School District,Washtucna,,"730 East Booth Avenue, WASHTUCNA, Washington, 99371-0688","730 East Booth Avenue, WASHTUCNA, Washington, 99371-0688",Todd  Spear,tspear@tucna.wednet.edu,(509)646-3237,https://www.tucna.wednet.edu,Adams,"Adams, Franklin, Whitman",4,9,Public School District,5,5390579737.1886,410584.184247775
2,100021,32801,101,Educational Service District 101,01122,Benge School District,Benge,,"2978 E BENGE WINONA RD, BENGE, Washington, 99105-9705","2978 E BENGE WINONA RD, BENGE, Washington, 99105-9705",Robert  Moore,bob.moore@benge.wednet.edu,(509)887-2370,https://www.benge.wednet.edu/,Adams,Adams,4,9,Public School District,5,3283812555.89771,353159.685464462
3,100192,11801,123,Educational Service District 123,01147,Othello School District,Othello,,"1025 S 1st Ave, OTHELLO, Washington, 99344-1463","1025 S 1st Ave, OTHELLO, Washington, 99344-1463",Chris  Hurst,churst@othelloschools.org,(509)488-2659,https://www.othelloschools.org/,Adams,"Adams, Franklin, Grant",4,9,Public School District,4,8305618738.1709,495266.863109675
4,100131,32801,101,Educational Service District 101,01158,Lind School District,Lind,,"206 W Third St, Lind, Washington, 99341-0340","PO BOX 340, Lind, Washington, 99341-0340",Donald  Vanderholm,dvanderholm@lrschools.org,(509)677-3481,https://www.lrschools.org,Adams,Adams,4,9,Public School District,5,13849467849.2264,690112.786196062
5,100220,32801,101,Educational Service District 101,01160,Ritzville School District,Ritzville,,"209 E WELLSANDT RD, RITZVILLE, Washington, 99169-1600","209 E WELLSANDT RD, RITZVILLE, Washington, 99169-1600",Donald  Vanderholm,dvanderholm@lrschools.org,(509)659-1660,https://www.lrschools.org/,Adams,"Adams, Lincoln","4, 5",9,Public School District,5,18318639488.5013,1054539.44067461
6,100045,11801,123,Educational Service District 123,02250,Clarkston School District,Clarkston,,"1294 CHESTNUT ST, CLARKSTON, Washington, 99403-2557","PO BOX 70, CLARKSTON, Washington, 99403-2557",Thaynan  Knowlton,knowltont@csdk12.org,(509)758-2531,https://www.csdk12.org,Asotin,"Asotin, Garfield, Whitman",5,9,Public School District,5,4425644788.28973,367683.32080643
7,100015,11801,123,Educational Service District 123,02420,Asotin-Anatone School District,Asotin-Anatone,,"314 FIRST ST, ASOTIN, Washington, 99402-0489","PO BOX 489, ASOTIN, Washington, 99402-0489",Dale  Bonfield,dbonfield@aasd.wednet.edu,(509)243-1100,https://www.aasd.wednet.edu/,Asotin,Asotin,5,9,Public School District,5,14692738392.4647,564139.024440351
8,100116,11801,123,Educational Service District 123,03017,Kennewick School District,Kennewick,,"1000 W. 4th Avenue, KENNEWICK, Washington, 99336-5601","1000 W. 4th Avenue, KENNEWICK, Washington, 99336-5601",Traci  Pierce,traci.pierce@ksd.org,(509)222-5020,https://www.ksd.org/,Benton,Benton,4,"8, 16",Public School District,4,8336064608.65833,474396.673905455
9,100197,11801,123,Educational Service District 123,03050,Paterson School District,Paterson,,"51409 W PRIOR RD, PATERSON, Washington, 99345-0189","PO BOX 189, PATERSON, Washington, 99345-0189",Monica  Burnett,monicab@patersonschool.org,(509)875-2601,https://www.patersonschool.org/,Benton,Benton,4,16,Public School District,4,6093545350.36633,468987.409881842
10,100119,11801,123,Educational Service District 123,03052,Kiona-Benton City School District,Kiona-Benton City,,"1105 DALE AVE, BENTON CITY, Washington, 99320-9704","1105 DALE AVE, BENTON CITY, Washington, 99320-9704",Pete  Peterson,pete.peterson@kibesd.org,(509)588-2000,https://www.kibesd.org/,Benton,Benton,4,16,Public School District,4,3714109460.35272,433962.663052698
11,100089,11801,123,Educational Service District 123,03053,Finley School District,Finley,,"224606 E GAME FARM RD, KENNEWICK, Washington, 99337-8623","224606 E GAME FARM RD, KENNEWICK, Washington, 99337-8623",Lance  Hahn,Lhahn@finleysd.org,(509)586-3217,https://www.finleysd.org/,Benton,Benton,4,16,Public School District,4,2971580084.58984,310398.047278025
12,100205,11801,123,Educational Service District 123,03116,Prosser School District,Prosser,,"1500 Grant Ave, PROSSER, Washington, 99350","1500 Grant Ave, PROSSER, Washington, 99350",Matthew  Ellis,matt.ellis@prosserschools.org,(509)786-3323,http://www.prosserschools.org/,Benton,"Benton, Klickitat","3, 4",16,Public School District,4,16707255511.2153,866257.018427921
13,100218,11801,123,Educational Service District 123,03400,Richland School District,Richland,,"615 SNOW AVE, RICHLAND, Washington, 99352-3899","615 SNOW AVE, RICHLAND, Washington, 99352-3899",Shelley  Redinger,Shelley.Redinger@rsd.edu,(509)967-6001,https://www.rsd.edu,Benton,Benton,4,8,Public School District,4,12880600906.0877,646428.896941288
14,100139,04801,171,North Central Educational Service District 171,04019,Manson School District,Manson,,"135 S. HILL STREET, MANSON, Washington, 98831-9668","PO BOX A, MANSON, Washington, 98831-9668",Matt  Charlton,mcharlton@manson.org,(509)687-3140,https://www.manson.org,Chelan,Chelan,8,12,Public School District,4,5815015385.84778,472423.415816539
15,100253,04801,171,North Central Educational Service District 171,04069,Stehekin School District,Stehekin,,"430 Olds Station Rd, Wenatchee, Washington, 98801","PO BOX 37, STEHEKIN, Washington, 98852-0037",Michelle  Price,michellep@ncesd.org,(509)665-2628,https://www.stehekinschool.org,Chelan,Chelan,8,12,Public School District,4,12226992315.5631,622239.663695933
16,100079,04801,171,North Central Educational Service District 171,04127,Entiat School District,Entiat,,"2650 ENTIAT WAY, ENTIAT, Washington, 98822-9710","2650 ENTIAT WAY, ENTIAT, Washington, 98822-9710",Miles  Caples,mcaples@entiatschools.org,(509)784-1800,https://www.entiatschools.org,Chelan,Chelan,8,12,Public School District,4,12325216040.9675,763478.357004048
17,100125,04801,171,North Central Educational Service District 171,04129,Lake Chelan School District,Lake Chelan,,"303 E JOHNSON AVE, CHELAN, Washington, 98816-0369","PO BOX 369, CHELAN, Washington, 98816-0369",Barry  DePaoli,depaolib@chelanschools.org,(509)682-3515,https://www.chelanschools.org,Chelan,"Chelan, Douglas, Okanogan","4, 8",12,Public School District,4,11132535550.4313,953866.384997757
18,100035,04801,171,North Central Educational Service District 171,04222,CASHMERE SCHOOL DISTRICT,Cashmere,,"210 S DIVISION ST, CASHMERE, Washington, 98815-1133","210 S DIVISION ST, CASHMERE, Washington, 98815-1133",GLENN ERICK JOHNSON,GJOHNSON@CASHMERE.WEDNET.EDU,(509)782-3355,https://www.cashmere.wednet.edu,Chelan,Chelan,8,12,Public School District,4,2800470265.33655,317182.132212542
19,100034,04801,171,North Central Educational Service District 171,04228,Cascade School District,Cascade,,"330 EVANS ST, LEAVENWORTH, Washington, 98826-1244","330 EVANS ST, LEAVENWORTH, Washington, 98826-1244",Tracey  Beckendorf-Edou,tbeckendorfedou@cascadesd.org,(509)548-5885,https://www.cascadesd.org/,Chelan,Chelan,8,12,Public School District,4,32793836904.823,1064652.68119859
20,100290,04801,171,North Central Educational Service District 171,04246,Wenatchee School District,Wenatchee,,"235 SUNSET AVE, WENATCHEE, Washington, 98801-1999","PO BOX 1767, WENATCHEE, Washington, 98801-1999",Paul  Gordon,gordon.paul@wenatcheeschools.org,(509)663-8161,https://www.wenatcheeschools.org/,Chelan,Chelan,8,12,Public School District,4,7130680670.90063,552630.021190904
21,100202,18801,114,Olympic Educational Service District 114,05121,Port Angeles School District,Port Angeles,,"905 W 9TH ST, PORT ANGELES, Washington, 98363-7275","905 W 9TH ST, PORT ANGELES, Washington, 98363-7275",Martin A Brewer,mbrewer@portangelesschools.org,(360)457-8575,https://www.portangelesschools.org/,Clallam,Clallam,6,24,Public School District,2,12145979990.7448,530629.10770378
22,100059,18801,114,Olympic Educational Service District 114,05313,Crescent School District,Crescent,,"50350 HWY 112, JOYCE, Washington, 98343-0020","PO BOX 20, JOYCE, Washington, 98343-0020",David  Bingham,dbingham@csd313.org,(360)928-3311,https://www.csd313.org,Clallam,Clallam,6,24,Public School District,2,11385635744.9469,558184.656845663
23,100233,18801,114,Olympic Educational Service District 114,05323,Sequim School District,Sequim,,"503 N SEQUIM AVE, SEQUIM, Washington, 98382-3161","503 N SEQUIM AVE, SEQUIM, Washington, 98382-3161",Jane  Pryne,jpryne@sequimschools.org,(360)582-3260,http://www.sequimschools.org/,Clallam,"Clallam, Jefferson",6,24,Public School District,2,13732100975.148,529872.626669608
24,100032,18801,114,Olympic Educational Service District 114,05401,Cape Flattery School District,Cape Flattery,,"13193 HWY 112, SEKIU, Washington, 98381-9747","PO BOX 109, SEKIU, Washington, 98381-9747",Michelle  Parkin,mparkin@cfsd.wednet.edu,(360)963-2075,https://www.cfsd401.org/,Clallam,Clallam,6,24,Public School District,2,20307262907.8789,645775.682948607
25,100210,18801,114,Olympic Educational Service District 114,05402,Quillayute Valley School District,Quillayute Valley,,"411 S SPARTAN AVE, FORKS, Washington, 98331-0060","411 S Spartan Ave, FORKS, Washington, 98331",Diana   Reaume,diana.reaume@qvschools.org,(360)374-6262,https://www.qvschools.org,Clallam,"Clallam, Jefferson",6,"24, 29",Public School District,2,25302432544.8072,695959.035259715
26,100278,06801,112,Educational Service District 112,06037,Vancouver School District,Vancouver,,"2901 FALK RD, VANCOUVER, Washington, 98661-5683","PO BOX 8937, VANCOUVER, Washington, 98661-5683",Steven T Webb,steven.webb@vansd.org,(360)313-1200,https://vansd.org/,Clark,Clark,3,"17, 18, 49",Public School District,1,1708356877.79362,220138.907238972
27,100106,06801,112,Educational Service District 112,06098,Hockinson School District,Hockinson,,"17912 NE 159TH ST, BRUSH PRAIRIE, Washington, 98606-9765","17912 NE 159TH ST, BRUSH PRAIRIE, Washington, 98606-9765",Steven  Marshall,steve.marshall@hocksd.org,(360)448-6400,https://www.hocksd.org,Clark,Clark,3,"17, 18",Public School District,1,1306689188.31827,212889.253146107
28,100122,06801,112,Educational Service District 112,06101,La Center School District,La Center,,"725 HIGHLAND ROAD, LA CENTER, Washington, 98629-5507","PO BOX 1840, LA CENTER, Washington, 98629-5507",David  Holmes,dave.holmes@lacenterschools.org,(360)263-2131,https://www.lacenterschools.org,Clark,Clark,3,18,Public School District,1,1077383619.09613,202319.065120869
29,100101,06801,112,Educational Service District 112,06103,Green Mountain School District,Green Mountain,,"13105 NE GRINNELL RD, WOODLAND, Washington, 98674-3808","13105 NE GRINNELL RD, WOODLAND, Washington, 98674-3808",Tyson J Vogeler,tyson.vogeler@greenmountainschool.us,(360)225-7366,https://greenmountainschool.us/,Clark,Clark,3,20,Public School District,1,715727280.451996,169336.379591105
30,100286,06801,112,Educational Service District 112,06112,Washougal School District,Washougal,,"4855 Evergreen Way, WASHOUGAL, Washington, 98671-9176","4855 Evergreen Way, WASHOUGAL, Washington, 98671-9176",Mary  Templeton,mary.templeton@washougalsd.org,(360)954-3005,http://www.washougal.k12.wa.us,Clark,"Clark, Skamania",3,"14, 18",Public School District,1,10291928575.2271,831872.805151784
31,100084,06801,112,Educational Service District 112,06114,Evergreen School District (Clark),Evergreen (Clark),,"13501 NE 28TH ST, VANCOUVER, Washington, 98668-8910","PO BOX 8910, VANCOUVER, Washington, 98668-8910",Michael  Merlino,Michael.Merlino@evergreenps.org,(360)604-4000,https://www.evergreenps.org,Clark,Clark,3,"17, 18, 49",Public School District,1,1331897465.40611,220728.22498031
32,100031,06801,112,Educational Service District 112,06117,Camas School District,Camas,,"841 NE 22nd Ave, CAMAS, Washington, 98607-1148","841 NE 22nd AVE, CAMAS, Washington, 98607-1148",Jeff  Snell,jeff.snell@camas.wednet.edu,(360)335-3000,https://www.camas.wednet.edu/,Clark,Clark,3,18,Public School District,1,1563752427.32716,252413.902576575
33,100018,06801,112,Educational Service District 112,06119,Battle Ground School District,Battle Ground,,"11104 NE 149TH ST, BATTLE GROUND, Washington, 98604-0200","PO BOX 200, BATTLE GROUND, Washington, 98604-0200",Mark  Ross,ross.mark@battlegroundps.org,(360)885-5302,https://www.battlegroundps.org,Clark,Clark,3,"17, 18",Public School District,1,7546043309.30679,540736.996977148
34,100219,06801,112,Educational Service District 112,06122,Ridgefield School District,Ridgefield,,"510 PIONEER STREET, RIDGEFIELD, Washington, 98642-9088","510 PIONEER STREET, RIDGEFIELD, Washington, 98642-9088",Nathan  McCann,nathan.mccann@ridgefieldsd.org,(360)619-1302,https://www.ridgefieldsd.org,Clark,Clark,3,18,Public School District,1,1579311648.50339,216254.964093189
35,100066,11801,123,Educational Service District 123,07002,Dayton School District,Dayton,,"609 S 2ND ST, DAYTON, Washington, 99328-1572","609 S 2ND ST, DAYTON, Washington, 99328-1572",Guy  Strot,guys@daytonsd.org,(509)382-2543,https://www.daytonsd.org/,Columbia,Columbia,5,16,Public School District,4,19225699257.2985,780938.533119031
36,100252,11801,123,Educational Service District 123,07035,Starbuck School District,Starbuck,,"717 TUCANNON ST, STARBUCK, Washington, 99359-0188","PO BOX 188, STARBUCK, Washington, 99359-0188",Kevin  Graffis,kgraffis@starbuck.k12.wa.us,(509)399-2381,https://www.facebook.com/starbuckschool/,Columbia,Columbia,5,16,Public School District,4,2885512383.36377,374567.74647146
37,100132,06801,112,Educational Service District 112,08122,Longview School District,Longview,,"2715 LILAC ST, LONGVIEW, Washington, 98632-3596","2715 LILAC ST, LONGVIEW, Washington, 98632-3596",Daniel Roy Zorn,dzorn@longview.k12.wa.us,(360)575-7016,https://longviewschools.com/,Cowlitz,Cowlitz,3,19,Public School District,1,3777840820.16763,353632.913097828
38,100271,06801,112,Educational Service District 112,08130,Toutle Lake School District,Toutle Lake,,"5050 SPIRIT LAKE HWY, TOUTLE, Washington, 98649-9701","5050 SPIRIT LAKE HWY, TOUTLE, Washington, 98649-9701",Bob  Garrett,bgarrett@toutlesd.org,(360)274-6182,https://www.toutlesd.org/,Cowlitz,Cowlitz,3,20,Public School District,1,6398217760.79816,433059.731518463
39,100036,06801,112,Educational Service District 112,08401,Castle Rock School District,Castle Rock,,"600 HUNTINGTON AVE S, CASTLE ROCK, Washington, 98611-8901","600 HUNTINGTON AVE S, CASTLE ROCK, Washington, 98611-8901",Ryan  Greene,rgreene@crschools.org,(360)501-2940,https://www.crschools.org,Cowlitz,"Cowlitz, Lewis",3,20,Public School District,1,4572793267.63055,475833.372033861
40,100113,06801,112,Educational Service District 112,08402,Kalama School District,Kalama,,"548 CHINA GARDEN RD, KALAMA, Washington, 98625-9764","548 CHINA GARDEN RD, KALAMA, Washington, 98625-9764",Eric Steven Nerison,eric.nerison@kalama.k12.wa.us,(360)673-5282,https://www.kalamaschools.org/,Cowlitz,Cowlitz,3,20,Public School District,1,5939284229.90343,526844.955746993
41,100302,06801,112,Educational Service District 112,08404,Woodland School District,Woodland,,"800 3RD ST, WOODLAND, Washington, 98674-8467","800 3RD ST, WOODLAND, Washington, 98674-8467",Michael Z. Green,greenm@woodlandschools.org,(360)841-2705,https://www.woodlandschools.org/,Cowlitz,"Clark, Cowlitz",3,20,Public School District,1,5585722053.68706,512989.38981903
42,100115,06801,112,Educational Service District 112,08458,Kelso School District,Kelso,,"601 CRAWFORD ST, KELSO, Washington, 98626-4398","601 CRAWFORD ST, KELSO, Washington, 98626-4398",Mary Beth  Tack,marybeth.tack@kelsosd.org,(360)501-1927,https://www.kelso.wednet.edu,Cowlitz,Cowlitz,3,"19, 20",Public School District,1,7211270893.08176,706942.85941975
43,100189,04801,171,North Central Educational Service District 171,09013,Orondo School District,Orondo,,"100 ORONDO SCHOOL RD, ORONDO, Washington, 98843-9723","100 ORONDO SCHOOL RD, ORONDO, Washington, 98843-9723",Dr. Ismael  Vivanco,ivivanco@orondo.wednet.edu,(509)784-1333,https://www.orondo.wednet.edu,Douglas,Douglas,4,12,Public School District,4,1078044433.27783,215537.651776657
44,100028,04801,171,North Central Educational Service District 171,09075,Bridgeport School District,Bridgeport,,"1400 Tacoma Avenue, BRIDGEPORT, Washington, 98813-1060","PO BOX 1060, BRIDGEPORT, Washington, 98813-1060",Scott  Sattler,ssattler@bridgeport.wednet.edu,(509)686-5656,https://www.bridgeport.wednet.edu,Douglas,"Douglas, Okanogan",4,12,Public School District,4,7588612829.51721,583280.689655539
45,100193,04801,171,North Central Educational Service District 171,09102,Palisades School District,Palisades,,"1114 PALISADES RD, PALISADES, Washington, 98845-9609","1114 PALISADES RD, PALISADES, Washington, 98845-9609",Eric  Johnson,ericj@ncesd.org,(509)884-8071,https://www.palisd.org/,Douglas,Douglas,4,12,Public School District,4,2195293285.0415,375949.953299722
46,100072,04801,171,North Central Educational Service District 171,09206,Eastmont School District,Eastmont,,"800 Eastmont Ave, EAST WENATCHEE, Washington, 98802-4443","800 Eastmont Ave, EAST WENATCHEE, Washington, 98802-4443",Garn  Christensen,christenseng@eastmont206.org,(509)884-7169,https://www.eastmont206.org/,Douglas,Douglas,"4, 8",12,Public School District,4,3825758225.42334,314408.358468032
47,100138,04801,171,North Central Educational Service District 171,09207,Mansfield School District,Mansfield,,"491 RD 14NE, MANSFIELD, Washington, 98830-0188","PO BOX 188, MANSFIELD, Washington, 98830-0188",Michael  Messenger,mmessenger@mansfield.wednet.edu,(509)683-1012,https://www.mansfield.wednet.edu/,Douglas,Douglas,4,12,Public School District,4,8597010242.32581,549883.696173378
48,100288,04801,171,North Central Educational Service District 171,09209,Waterville School District,Waterville,,"200 E BIRCH, WATERVILLE, Washington, 98858-0490","PO BOX 490, WATERVILLE, Washington, 98858-0490",Tabatha  Mires,tmires@waterville.wednet.edu,(509)888-5591,https://www.watervilleschool.org/,Douglas,Douglas,4,12,Public School District,4,12916448109.3282,634596.001321899
49,100114,32801,101,Educational Service District 101,10003,Keller School District,Keller,,"17 South School Road, KELLER, Washington, 99140-0367","PO BOX 367, KELLER, Washington, 99140-0367",Steve  Gaub,sgaub@keller.k12.wa.us,(509)634-4325,https://www.keller.k12.wa.us/,Ferry,Ferry,5,7,Public School District,5,16593024730.1893,586438.706726232
50,100061,32801,101,Educational Service District 101,10050,Curlew School District,Curlew,,"47 CURLEW SCHOOL RD, CURLEW, Washington, 99118-9748","PO BOX 370, CURLEW, Washington, 99118-9748",John  Glenewinkel,jgwinkel@curlew.wednet.edu,(509)779-4931,https://www.curlew.wednet.edu/,Ferry,"Ferry, Okanogan","4, 5",7,Public School District,5,10121988471.6453,456047.444428863
51,100188,32801,101,Educational Service District 101,10065,Orient School District,Orient,,"374 4th Ave, ORIENT, Washington, 99160","374 4th Ave, ORIENT, Washington, 99160",Sherry  Cowbrough,sherry.cowbrough@orientsd.org,(509)684-6873,http://www.orientsd.org/,Ferry,"Ferry, Stevens",5,7,Public School District,5,8650479462.41528,471317.242036529
52,100109,32801,101,Educational Service District 101,10070,Inchelium School District,Inchelium,,"2 HORNET AVE, INCHELIUM, Washington, 99138-0285","PO BOX 285, INCHELIUM, Washington, 99138-0285",Kim Alan Spacek,kspacek@inchelium.net,(509)722-6181 Ext.100,https://www.inchelium.wednet.edu/,Ferry,Ferry,5,7,Public School District,5,12017957985.1921,633233.221444692
53,100217,32801,101,Educational Service District 101,10309,Republic School District,Republic,,"30306 E HIGHWAY 20, REPUBLIC, Washington, 99166-8746","30306 E HIGHWAY 20, REPUBLIC, Washington, 99166-8746",Kevin  Young,kyoung@republicsd.org,(509)775-3173,https://www.republic309.org/,Ferry,"Ferry, Okanogan","4, 5",7,Public School District,5,13522599561.0535,629253.068687774
54,100195,11801,123,Educational Service District 123,11001,Pasco School District,Pasco,,"1215 W LEWIS ST, PASCO, Washington, 99301-5472","1215 W LEWIS ST, PASCO, Washington, 99301-5472",Michelle I. Whitney,mwhitney@psd1.org,(509)543-6700,https://www.psd1.org/,Franklin,Franklin,4,"9, 16",Public School District,4,8453157459.91858,452281.917003142
55,100168,11801,123,Educational Service District 123,11051,North Franklin School District,North Franklin,,"1100 W CLARK ST, CONNELL, Washington, 99326-0829","PO BOX 829, CONNELL, Washington, 99326-0829",Jim   Jacobs,jjacobs@nfsd.org,(509)234-2021,https://www.nfsd.org/,Franklin,"Adams, Franklin",4,9,Public School District,4,17494262867.6044,825837.860149352
56,100251,11801,123,Educational Service District 123,11054,Star School District No. 054,Star No. 054,,"24180 PASCO KAHLOTUS RD, PASCO, Washington, 99301-9738","P. O. Box 404, Mesa, Washington, 99343",Gregg  Taylor,gtaylor@starsd.org,(509)547-2704,https://www.starsd.org/,Franklin,Franklin,4,9,Public School District,4,2129581497.27472,259323.459629271
57,100112,11801,123,Educational Service District 123,11056,Kahlotus School District,Kahlotus,,"100 W MARTIN ST, KAHLOTUS, Washington, 99335-0069","PO BOX 69, KAHLOTUS, Washington, 99335-0069",Mark F. Bitzer,markfbitzer@kahlotussd.org,(509)282-3338 Ext.101,https://www.kahlotussd.org/,Franklin,Franklin,4,9,Public School District,4,6770118675.99158,540756.033912133
58,100201,11801,123,Educational Service District 123,12110,Pomeroy School District,Pomeroy,,"121 S 10th Street, POMEROY, Washington, 99347-0950","PO BOX 950, POMEROY, Washington, 99347-0950",Rachel  Gwinn,rgwinn@psd.wednet.edu,(509)843-3393,https://psd.wednet.edu/,Garfield,"Columbia, Garfield",5,9,Public School District,5,19205427042.8887,831284.761032357
59,100281,39801,105,Educational Service District 105,13073,Wahluke School District,Wahluke,,"411 E SADDLE MT DRIVE, MATTAWA, Washington, 99349-0952","PO BOX 907, MATTAWA, Washington, 99349-0952",Andrew   Harlow,anharlow@wahluke.net,(509)932-4565,https://www.wsd73.wednet.edu/,Grant,"Grant, Yakima",4,13,Public School District,4,7265912866.1767,433657.405792023
60,100212,04801,171,North Central Educational Service District 171,13144,Quincy School District,Quincy,,"119 J ST SW, QUINCY, Washington, 98848-1330","119 J ST SW, QUINCY, Washington, 98848-1330",John L Boyd,jboyd@qsd.wednet.edu,(509)787-4571,https://www.qsd.wednet.edu/,Grant,"Douglas, Grant",4,"12, 13",Public School District,4,12678722285.2914,571286.745731557
61,100285,04801,171,North Central Educational Service District 171,13146,Warden School District,Warden,,"101 W BECK WAY, WARDEN, Washington, 98857-9401","101 W BECK WAY, WARDEN, Washington, 98857-9401",David   LaBounty,dlabounty@warden.wednet.edu,(509)349-2366,https://www.warden.wednet.edu,Grant,"Adams, Grant",4,13,Public School District,4,4657671342.90857,437630.596943444
62,100057,04801,171,North Central Educational Service District 171,13151,Coulee-Hartline School District,Coulee-Hartline,,"410 W LOCUST ST, COULEE CITY, Washington, 99115-0428","PO BOX 428, COULEE CITY, Washington, 99115-0428",James  Evans,jevans@achwarriors.com,(509)632-5231,http://www.achsd.org/,Grant,"Douglas, Grant",4,12,Public School District,4,16891127857.9679,817610.491035943
63,100241,04801,171,North Central Educational Service District 171,13156,Soap Lake School District,Soap Lake,,"410 GINKGO ST S, SOAP LAKE, Washington, 98851-0158","410 GINKGO ST S, SOAP LAKE, Washington, 98851-0158",Sunshine  Pray,spray@slschools.org,(509)246-1822,https://www.slschools.org,Grant,Grant,4,12,Public School District,4,2086614939.83398,213599.327768509
64,100226,39801,105,Educational Service District 105,13160,Royal School District,Royal,,"901 Ahlers Rd, Royal City, Washington, 99357-0486","PO Box 486, Royal City, Washington, 99357-0486",Roger  Trail,rtrail@royalsd.org,(509)346-2222,https://royalsd.org/,Grant,Grant,4,13,Public School District,4,11059256947.1755,491563.875817503
65,100153,04801,171,North Central Educational Service District 171,13161,Moses Lake School District,Moses Lake,,"1620 S Pioneer Way, MOSES LAKE, Washington, 98837","1620 S Pioneer Way, MOSES LAKE, Washington, 98837",  ,,,https://www.mlsd161.org,Grant,Grant,4,13,Public School District,4,12784301492.2126,601392.593841992
66,100081,04801,171,North Central Educational Service District 171,13165,Ephrata School District,Ephrata,,"111 4TH AVE NW, EPHRATA, Washington, 98823","111 4TH AVE NW, EPHRATA, Washington, 98823-1690",Timothy A   Payne,tpayne@ephrataschools.org,(509)754-2474,https://www.ephrataschools.org/,Grant,"Douglas, Grant",4,13,Public School District,4,9137807535.55872,638883.901106816
67,100298,04801,171,North Central Educational Service District 171,13167,Wilson Creek School District,Wilson Creek,,"400 NAVAR ST, WILSON CREEK, Washington, 98860-0046","PO BOX 46, WILSON CREEK, Washington, 98860-0046",Laura M Christian,lchristian@wilsoncreek.org,(509)345-2541,http://www.wilsoncreek.org,Grant,"Grant, Lincoln","4, 5",13,Public School District,4,7351036079.91675,532655.046467377
68,100095,04801,171,North Central Educational Service District 171,13301,Grand Coulee Dam School District,Grand Coulee Dam,,"110 STEVENS AVE, COULEE DAM, Washington, 99116-1503","110 Stevens Ave., COULEE DAM, Washington, 99116-1503",Paul  Turner,pturner@gcdsd.org,(509)633-2143,https://www.gcdsd.org,Grant,"Douglas, Grant, Lincoln, Okanogan","4, 5",12,Public School District,5,8864697122.10962,483110.907296437
69,100010,34801,113,Capital Region ESD 113,14005,Aberdeen School District,Aberdeen,,"216 N G ST, ABERDEEN, Washington, 98520-5297","216 N G ST, ABERDEEN, Washington, 98520-5297",Alicia  Henderson,ahenderson@asd5.org,(360)538-2002,https://www.asd5.org,Grays Harbor,Grays Harbor,6,19,Public School District,1,2010366677.45352,310782.020675886
70,100108,34801,113,Capital Region ESD 113,14028,Hoquiam School District,Hoquiam,,"325 W. Chenault Avenue, HOQUIAM, Washington, 98550-2419","325 W. Chenault Avenue, HOQUIAM, Washington, 98550-2419",Mike  Villarreal,mvillarreal@hoquiam.net,(360)538-8200,https://www.hoquiam.net/,Grays Harbor,Grays Harbor,6,24,Public School District,1,5588718028.95901,339853.108250015
71,100167,34801,113,Capital Region ESD 113,14064,North Beach School District,North Beach,,"336 STATE ROUTE 113, OCEAN SHORES, Washington, 98569-9563","PO BOX 159, OCEAN SHORES, Washington, 98569-9563",Andrew E. Kelly,akelly@northbeachschools.org,(360)289-2447,https://www.northbeachschools.org,Grays Harbor,Grays Harbor,6,24,Public School District,1,5728049134.10727,384267.853983846
72,100143,34801,113,Capital Region ESD 113,14065,McCleary School District,McCleary,,"611 S MAIN ST, MCCLEARY, Washington, 98557-9524","611 S MAIN ST, MCCLEARY, Washington, 98557-9524",Shannon  Ramsey,sramsey@mccleary.wednet.edu,(360)495-3507,https://www.mccleary.wednet.edu,Grays Harbor,"Grays Harbor, Mason",6,24,Public School District,1,741388274.222961,145211.046162181
73,100151,34801,113,Capital Region ESD 113,14066,Montesano School District,Montesano,,"502 E. Spruce Ave, MONTESANO, Washington, 98563","502 E. Spruce Ave, MONTESANO, Washington, 98563",Dan  Winter,dwinter@monteschools.org,(360)249-3942,https://www.monteschools.org,Grays Harbor,Grays Harbor,6,19,Public School District,1,6289553784.84406,548882.186713452
74,100077,34801,113,Capital Region ESD 113,14068,Elma School District,Elma,,"1235 MONTE ELMA RD, ELMA, Washington, 98541-9038","1235 MONTE ELMA RD, ELMA, Washington, 98541-9038",Kevin  Acuff,kacuff@eagles.edu,(360)482-2822,https://www.eagles.edu/,Grays Harbor,"Grays Harbor, Mason",6,24,Public School District,1,4888677559.91663,521461.975486407
75,100262,34801,113,Capital Region ESD 113,14077,Taholah School District,Taholah,,"600 CHITWHIN DR, TAHOLAH, Washington, 98587-0249","PO BOX 249, TAHOLAH, Washington, 98587-0249",Kathleen  Werner,kwerner@taholah.org,(360)276-4780,https://www.taholah.org,Grays Harbor,Grays Harbor,6,24,Public School District,1,9537844538.185,429285.772357559
76,100211,34801,113,Capital Region ESD 113,14097,Lake Quinault School District,Lake Quinault,,"6130 HWY 101 N, AMANDA PARK, Washington, 98526-0038","PO BOX 38, AMANDA PARK, Washington, 98526-0038",Keith  Samplawski,ksamplawski@lakequinaultschools.org,(360)288-2260,https://www.lakequinaultschools.org/,Grays Harbor,Grays Harbor,6,24,Public School District,1,12475546464.4449,735263.665194737
77,100056,34801,113,Capital Region ESD 113,14099,Cosmopolis School District,Cosmopolis,,"1439 FOURTH STREET, COSMOPOLIS, Washington, 98537-0479","PO BOX 479 , COSMOPOLIS, Washington, 98537",Cherie  Patterson,cpatterson@cosmopolisschool.com,(360)532-7181,https://www.cosmopolisschool.com,Grays Harbor,Grays Harbor,6,19,Public School District,1,1832115686.12894,303854.677061191
78,100228,34801,113,Capital Region ESD 113,14104,Satsop School District,Satsop,,"853 MONTE ELMA RD, SATSOP, Washington, 98583-0096","PO BOX 96, SATSOP, Washington, 98583-0096",Marsha  Hendrick,mhendrick.satsop@gmail.com,(360)482-5330,http://www.satsopschool.org/,Grays Harbor,Grays Harbor,6,24,Public School District,1,272848449.438812,97427.5042000968
79,100300,34801,113,Capital Region ESD 113,14117,Wishkah Valley School District,Wishkah Valley,,"4640 Wishkah Road, Aberdeen, Washington, 98520-9626","4640 Wishkah Road, Aberdeen, Washington, 98520-9626",Donald  Hay,dhay@wishkah.org,(360)532-3128,https://www.wishkah.org/,Grays Harbor,Grays Harbor,6,24,Public School District,1,3097608265.68787,275433.086078494
80,100179,34801,113,Capital Region ESD 113,14172,Ocosta School District,Ocosta,,"2580 S MONTESANO ST, WESTPORT, Washington, 98595-9746","2580 S MONTESANO ST, WESTPORT, Washington, 98595-9746",Heather  Sweet,hsweet@ocosta.org,(360)268-9125 Ext.1000,https://www.ocosta.org/,Grays Harbor,"Grays Harbor, Pacific","3, 6",19,Public School District,1,6888169658.84283,418031.610689494
81,100177,34801,113,Capital Region ESD 113,14400,Oakville School District,Oakville,,"103 SCHOOL ST, OAKVILLE, Washington, 98568-0090","PO BOX H, OAKVILLE, Washington, 98568-0090",Richard  Staley,rstaley@oakvilleschools.org,(360)273-0171,https://www.oakvilleschools.org/,Grays Harbor,"Grays Harbor, Lewis","3, 6",19,Public School District,1,3111046506.78668,279283.116733506
82,100175,29801,189,Northwest Educational Service District 189,15201,Oak Harbor School District,Oak Harbor,,"350 S OAK HARBOR ST, OAK HARBOR, Washington, 98277-5015","350 S OAK HARBOR ST, OAK HARBOR, Washington, 98277-5015",Lance  Gibbon,lgibbon@ohsd.net,(360)279-5008,https://www.ohsd.net/,Island,Island,2,10,Public School District,3,4589297166.35559,327974.027814229
83,100058,29801,189,Northwest Educational Service District 189,15204,Coupeville School District,Coupeville,,"501 S MAIN ST, COUPEVILLE, Washington, 98239-3518","501 S Main St, Coupeville, Washington, 98239",Steve  King,sking@coupeville.k12.wa.us,(360)678-2404,http://www.coupeville.k12.wa.us/,Island,Island,2,10,Public School District,3,3175051949.54773,306663.294698526
84,100245,29801,189,Northwest Educational Service District 189,15206,South Whidbey School District,South Whidbey,,"5520 Maxwelton Road, Langley, Washington, 98260","5520 Maxwelton Road, Langley, Washington, 98260",Josephine  Moccia,jmoccia@sw.wednet.edu,(360)221-6808 Ext.2221,https://www.sw.wednet.edu,Island,Island,2,10,Public School District,3,4070118068.07965,299057.527288179
85,100208,18801,114,Olympic Educational Service District 114,16020,Queets-Clearwater School District,Queets-Clearwater,,"146000 HIGHWAY 101, FORKS, Washington, 98331-9484","146000 HIGHWAY 101, FORKS, Washington, 98331-9484",Homer Lee Petty,lpetty@qcsd20.org,(360)962-2395,http://www.queetsclearwaterschool.org/,Jefferson,Jefferson,6,24,Public School District,2,20034598109.6898,712203.477783011
86,100029,18801,114,Olympic Educational Service District 114,16046,Brinnon School District,Brinnon,,"46 SCHOOLHOUSE RD, BRINNON, Washington, 98320-9651","46 SCHOOLHOUSE RD, BRINNON, Washington, 98320-9651",Patricia  Beathard,pbeathard@bsd46.org,(360)796-4646,https://www.bsd46.org,Jefferson,Jefferson,6,24,Public School District,2,10208657692.1981,602616.91589856
87,100209,18801,114,Olympic Educational Service District 114,16048,Quilcene School District,Quilcene,,"294715 HWY 101, QUILCENE, Washington, 98376-0040","PO BOX 40, QUILCENE, Washington, 98376-0040",Frank  Redmon,fredmon@qsd48.org,(360)765-2902,https://www.qsd48.org,Jefferson,Jefferson,6,24,Public School District,2,13012449466.973,755311.288872031
88,100044,18801,114,Olympic Educational Service District 114,16049,Chimacum School District,Chimacum,,"91 W VALLEY RD, CHIMACUM, Washington, 98325-7731","PO BOX 278, CHIMACUM, Washington, 98325-0278",David  Engle,david_engle@csd49.org,(360)302-5896,https://www.csd49.org,Jefferson,Jefferson,6,24,Public School District,2,4784365645.08636,363109.325206857
89,100203,18801,114,Olympic Educational Service District 114,16050,Port Townsend School District,Port Townsend,,"1610 Blaine St., Port Townsend, Washington, 98368","1610 Blaine St., Port Townsend, Washington, 98368",Sandra  Gessner-Crabtree,sgessner@ptschools.org,(360)379-4501,https://www.ptschools.org/,Jefferson,Jefferson,6,24,Public School District,2,4706616071.5401,439854.894958803
90,100229,17801,121,Puget Sound Educational Service District 121,17001,Seattle Public Schools,Seattle,,"2445 3RD AVE S, SEATTLE, Washington, 98134-1165","PO BOX 34165, SEATTLE, Washington, 98124-1165",Denise  Juneau,superintendent@seattleschools.org,(206)252-0180,https://www.seattleschools.org/,King,King,"7, 9","11, 32, 34, 36, 37, 43, 46",Public School District,2,4008400331.16443,310124.678039317
91,100086,17801,121,Puget Sound Educational Service District 121,17210,Federal Way School District,Federal Way,,"33330 8th AVE S, FEDERAL WAY, Washington, 98003-5433","33330 8th AVE S, FEDERAL WAY, Washington, 98003-5433",Tammy  Campbell,tcampbell@fwps.org,(253)945-2000,https://www.fwps.org/,King,King,"8, 9","30, 33, 47",Public School District,2,1290166636.25568,175997.525477382
92,100080,17801,121,Puget Sound Educational Service District 121,17216,Enumclaw School District,Enumclaw,,"2929 MCDOUGALL AVE, ENUMCLAW, Washington, 98022-7499","2929 MCDOUGALL AVE, ENUMCLAW, Washington, 98022-7499",Shaun  Carey,shaun_carey@enumclaw.wednet.edu,(360)802-7102,https://www.enumclaw.wednet.edu/,King,King,8,"5, 31",Public School District,2,12632980358.5985,738294.692730271
93,100146,17801,121,Puget Sound Educational Service District 121,17400,Mercer Island School District,Mercer Island,,"4160 86TH AVE SE, MERCER ISLAND, Washington, 98040-4196","4160 86TH AVE SE, MERCER ISLAND, Washington, 98040-4196",Donna  Colosky,donna.colosky@mercerislandschools.org,(206)236-3300,https://www.mercerislandschools.org/,King,King,9,41,Public School District,2,363232170.224792,88812.8072975162
94,100105,17801,121,Puget Sound Educational Service District 121,17401,Highline School District,Highline,,"15675 AMBAUM BLVD SW, BURIEN, Washington, 98166-0100","15675 AMBAUM BLVD SW, BURIEN, Washington, 98166-0100",Susan  Enfield,Susan.Enfield@highlineschools.org,(206)631-3000,https://www.highlineschools.org/,King,King,"7, 9","11, 33, 34",Public School District,2,1218178493.87158,165117.244245541
95,100279,17801,121,Puget Sound Educational Service District 121,17402,Vashon Island School District,Vashon Island,,"9309 SW Cemetery Rd, VASHON, Washington, 98070-3105","P O Box 547, VASHON, Washington, 98070-0547",Slade  McSheehy,smcsheehy@vashonsd.org,(206)463-8535,https://www.vashonsd.org/,King,King,7,34,Public School District,2,2294881753.89172,207248.484423684
96,100216,17801,121,Puget Sound Educational Service District 121,17403,Renton School District,Renton,,"300 SW 7TH ST, RENTON, Washington, 98057","300 SW 7TH ST, RENTON, Washington, 98057",Damien  Pattenaude,damien.pattenaude@rentonschools.us,(425)204-2341,https://www.rentonschools.us/,King,King,9,"11, 37, 41",Public School District,2,960243101.09198,198332.728820248
97,100238,17801,121,Puget Sound Educational Service District 121,17404,Skykomish School District,Skykomish,,"105 6TH ST N, SKYKOMISH, Washington, 98288-0325","PO BOX 325, SKYKOMISH, Washington, 98288-0325",Thomas L Jay,tjay@skykomish.wednet.edu,(360)677-2623,https://www.skykomishschool.com/,King,King,1,39,Public School District,2,10613125668.7396,464359.844671607
98,100019,17801,121,Puget Sound Educational Service District 121,17405,Bellevue School District,Bellevue,,"12111 NE 1ST ST, BELLEVUE, Washington, 98005-3183","PO BOX 90010, BELLEVUE, Washington, 98005-3183",Ivan  Duran,durani@bsd405.org,(425)456-4025,https://bsd405.org/,King,King,"1, 9","41, 48",Public School District,2,1167749677.09717,183479.852192695
99,100243,17801,121,Puget Sound Educational Service District 121,17406,Tukwila School District,Tukwila,,"4640 S 144TH ST, TUKWILA, Washington, 98168-4134","4640 S 144TH ST, TUKWILA, Washington, 98168-4134",Lester  Herndon,herndonf@tukwila.wednet.edu,(206)901-8000,https://www.tukwilaschools.org/,King,King,9,"11, 33",Public School District,2,155140091.835571,78420.2042683694
100,100222,17801,121,Puget Sound Educational Service District 121,17407,Riverview School District,Riverview,,"15510 1st Ave NE, DUVALL, Washington, 98019","PO Box 519, DUVALL, Washington, 98019",Anthony Lloyd Smith,smitha@rsd407.org,(425)844-4504,http://rsd407.org/,King,King,1,"5, 45",Public School District,2,4986282807.7478,374915.481779203
101,100016,17801,121,Puget Sound Educational Service District 121,17408,Auburn School District,Auburn,,"915 4TH ST NE, AUBURN, Washington, 98002-4452","915 4TH ST NE, AUBURN, Washington, 98002-4452",Alan  Spicciati,aspicciati@auburn.wednet.edu,(253)931-4914,https://www.auburn.wednet.edu,King,"King, Pierce",8,"30, 31, 47",Public School District,2,1599575418.10962,269453.7388622
102,100263,17801,121,Puget Sound Educational Service District 121,17409,Tahoma School District,Tahoma,,"25720 MAPLE VALLEY BLK DIAM RD, MAPLE VALLEY, Washington, 98038-8313","25720 MAPLE VALLEY BLK DIAM RD, MAPLE VALLEY, Washington, 98038-8313",  ,,,https://www.tahomasd.us/,King,King,8,5,Public School District,2,3384708977.24103,434911.354192997
103,100240,17801,121,Puget Sound Educational Service District 121,17410,Snoqualmie Valley School District,Snoqualmie Valley,,"8001 SILVA AVE SE, SNOQUALMIE, Washington, 98065-0400","PO BOX 400, SNOQUALMIE, Washington, 98065-0400",Robert W Manahan,manahanr@svsd410.org,(425)831-8000,https://www.svsd410.org/,King,King,"1, 8",5,Public School District,2,10969232910.1787,695548.86336498
104,100111,17801,121,Puget Sound Educational Service District 121,17411,Issaquah School District,Issaquah,,"5150 220th Ave SE, ISSAQUAH, Washington, 98029","5150 220th Ave SE, ISSAQUAH, Washington, 98029",Ronald Dion Thiele,ThieleR@issaquah.wednet.edu,(425)837-7002,https://www.issaquah.wednet.edu/,King,King,"8, 9","5, 41, 48",Public School District,2,2929232709.51166,298287.609011857
105,100236,17801,121,Puget Sound Educational Service District 121,17412,Shoreline School District,Shoreline,,"18560 1ST AVE NE, SHORELINE, Washington, 98155-2118","18560 1ST AVE NE, SHORELINE, Washington, 98155-2118",Rebecca Lee Miner,rebecca.miner@shorelineschools.org,(206)393-4203,https://www.shorelineschools.org,King,King,7,"32, 46",Public School District,2,620884911.835999,112842.446306466
106,100127,17801,121,Puget Sound Educational Service District 121,17414,Lake Washington School District,Lake Washington,,"16250 NE 74TH ST, REDMOND, Washington, 98052","PO BOX 97039, REDMOND, Washington, 98073-9739",Jonathon  Holmen,joholmen@lwsd.org,(425)936-6600,https://www.lwsd.org,King,King,"1, 8","1, 45, 48",Public School District,2,2117406398.81024,283554.513966415
107,100117,17801,121,Puget Sound Educational Service District 121,17415,Kent School District,Kent,,"12033 SE 256TH ST, KENT, Washington, 98031-6643","12033 SE 256TH ST, KENT, Washington, 98031-6643",Calvin J Watts,Calvin.Watts@kent.k12.wa.us,(253)373-7701,https://www.kent.k12.wa.us/,King,King,"8, 9","5, 11, 33, 47",Public School District,2,1919804376.47675,265933.302619339
108,100174,17801,121,Puget Sound Educational Service District 121,17417,Northshore School District,Northshore,,"3330 Monte Villa Parkway, BOTHELL, Washington, 98021-8972","3330 Monte Villa Parkway, BOTHELL, Washington, 98021-8972",Michelle  Reid,mreid@nsd.org,(425)408-7701,https://www.nsd.org,King,"King, Snohomish","1, 2","1, 45, 46",Public School District,2,1665218759.02075,242118.874832265
109,100026,18801,114,Olympic Educational Service District 114,18100,Bremerton School District,Bremerton,,"134 MARION AVE N, BREMERTON, Washington, 98312-3542","134 MARION AVE N, BREMERTON, Washington, 98312-3542",Aaron  Leavell,Aaron.Leavell@Bremertonschools.org,(360)473-1004,https://www.bremertonschools.org,Kitsap,Kitsap,6,"23, 26, 35",Public School District,2,642472638.922668,135475.859062236
110,100017,17801,121,Puget Sound Educational Service District 121,18303,Bainbridge Island School District,Bainbridge Island,,"8489 MADISON AVE NE, BAINBRIDGE ISLAND, Washington, 98110-2999","8489 MADISON AVE NE, BAINBRIDGE ISLAND, Washington, 98110-2999",Peter  Bang-Knudsen,pbangknudsen@bisd303.org,(206)780-1050,https://www.bisd303.org/,Kitsap,Kitsap,6,23,Public School District,2,1814366404.89539,180918.584662437
111,100169,18801,114,Olympic Educational Service District 114,18400,North Kitsap School District,North Kitsap,,"18360 Caldart Ave NE, Poulsbo, Washington, 98370","18360 Caldart Ave NE, Poulsbo, Washington, 98370",Dr. Laura H. Evans,levans@nkschools.org,(360)396-3001,http://www.nkschools.org,Kitsap,Kitsap,6,23,Public School District,2,4787344566.1875,328856.784947008
112,100038,18801,114,Olympic Educational Service District 114,18401,Central Kitsap School District,Central Kitsap,,"9210 SILVERDALE WAY NW, SILVERDALE, Washington, 98383-9197","PO BOX 8, SILVERDALE, Washington, 98383-9197",Erin  Prince,erinp@ckschools.org,(360)662-1610,https://www.ckschools.org/,Kitsap,Kitsap,6,"23, 35",Public School District,2,4102313202.03064,353788.839571688
113,100244,18801,114,Olympic Educational Service District 114,18402,South Kitsap School District,South Kitsap,,"2689 HOOVER AVE SE, PORT ORCHARD, Washington, 98366-3013","2689 HOOVER AVE SE, PORT ORCHARD, Washington, 98366-3013",Tim  Winter,winter@skschools.org,(360)874-7000,https://www.skschools.org,Kitsap,Kitsap,6,"26, 35",Public School District,2,4338862869.7038,309618.207997363
114,100063,39801,105,Educational Service District 105,19007,Damman School District,Damman,,"3600 UMPTANUM RD, ELLENSBURG, Washington, 98926-8747","3600 UMPTANUM RD, ELLENSBURG, Washington, 98926-8747",Marsha  Smith,hats2many@aol.com,(509)962-9079,Not Available,Kittitas,Kittitas,8,13,Public School District,4,1135737610.16241,174802.815412097
115,100073,39801,105,Educational Service District 105,19028,Easton School District,Easton,,"1893 RAILROAD ST, EASTON, Washington, 98925-0008","PO BOX 8, EASTON, Washington, 98925-0008",Patrick  Dehuff,dehuffp@easton.wednet.edu,(509)656-2317,https://www.easton.wednet.edu/,Kittitas,Kittitas,8,13,Public School District,4,8245520197.70557,581505.214068124
116,100266,39801,105,Educational Service District 105,19400,Thorp School District,Thorp,,"10831 N THORP HWY, THORP, Washington, 98946-0150","PO BOX 150, THORP, Washington, 98946-0150",Andrew  Perkins,perkinsa@THORPSCHOOLS.ORG,(509)964-2107,https://www.thorpschools.org/,Kittitas,Kittitas,8,13,Public School District,4,5600787809.56384,531891.779071461
117,100076,39801,105,Educational Service District 105,19401,Ellensburg School District,Ellensburg,,"1300 E 3RD AVE, ELLENSBURG, Washington, 98926-3576","1300 E 3RD AVE, ELLENSBURG, Washington, 98926-3576",Jinger  Haberer,jinger.haberer@esd401.org,(509)925-8010,https://www.esd401.org/,Kittitas,Kittitas,8,13,Public School District,4,15555945215.9691,1103915.07786426
118,100120,39801,105,Educational Service District 105,19403,Kittitas School District,Kittitas,,"505 N PIERCE ST, KITTITAS, Washington, 98934-0599","PO BOX 599, KITTITAS, Washington, 98934-0599",Mike  Nollan,mike_nollan@ksd403.org,(855)380-8844,https://www.ksd403.org/,Kittitas,Kittitas,8,13,Public School District,4,16946128965.3975,678658.343331855
119,100046,39801,105,Educational Service District 105,19404,Cle Elum-Roslyn School District,Cle Elum-Roslyn,,"4244 BULLFROG ROAD, CLE ELUM, Washington, 98922","4244 BULLFROG ROAD, CLE ELUM, Washington, 98922",Michelle  Kuss-Cybula,kuss-cybulam@cersd.org,(509)649-4851,https://www.cersd.org,Kittitas,Kittitas,8,13,Public School District,4,16713417540.7386,947273.035050955
120,100301,06801,112,Educational Service District 112,20094,Wishram School District,Wishram,,"135 BUNN, WISHRAM, Washington, 98673-0008","PO BOX 8, WISHRAM, Washington, 98673-0008",Mike  Roberts,mike.roberts@wishramschool.org,(509)748-2551,https://www.wishramschool.org/,Klickitat,Klickitat,3,14,Public School District,1,744466807.777695,142264.970493313
121,100023,39801,105,Educational Service District 105,20203,Bickleton School District,Bickleton,,"100 MARKET ST, BICKLETON, Washington, 99322-0010","PO BOX 10, BICKLETON, Washington, 99322-0010",Tom  Whitmore,twhitmore@bickletonschools.org,(509)896-5473,http://www.bickletonschools.org,Klickitat,"Klickitat, Yakima","3, 4",14,Public School District,4,12804488810.9377,552348.464535283
122,100037,06801,112,Educational Service District 112,20215,Centerville School District,Centerville,,"ATTN: Ann Varkados 2315 Centerville Hwy, CENTERVILLE, Washington, 98613-3021","ATTN:Ann Varkados 2315 Centerville Hwy, CENTERVILLE, Washington, 98613-3021",Ann  Varkados,avarkados@centervilleschool.org,(509)773-4893,https://www.centervilleschool.org/,Klickitat,Klickitat,3,14,Public School District,1,2924773875.17076,272423.294873436
123,100272,06801,112,Educational Service District 112,20400,Trout Lake School District,Trout Lake,,"2310 HIGHWAY 141, TROUT LAKE, Washington, 98650-9735","PO Box 488, TROUT LAKE, Washington, 98650-9735",Crystal   Lanz,c.lanz@tlschool.net,(509)395-2571,https://www.troutlake.k12.wa.us,Klickitat,Klickitat,3,14,Public School District,1,2332694639.57538,200840.795565697
124,100093,06801,112,Educational Service District 112,20401,Glenwood School District,Glenwood,,"320 BUNNELL ST, GLENWOOD, Washington, 98619-0012","PO BOX 12, GLENWOOD, Washington, 98619-0012",Heather  Gimlin,heather.gimlin@glenwoodsd.org,(509)364-3438,http://www.glenwood.k12.wa.us/,Klickitat,Klickitat,3,14,Public School District,1,4016522483.98355,333518.700977004
125,100121,06801,112,Educational Service District 112,20402,Klickitat School District,Klickitat,,"98 SCHOOL DRIVE, KLICKITAT, Washington, 98628-0037","PO BOX 37, KLICKITAT, Washington, 98628-0037",Brian  Freeman,brian.freeman@klickitatsd.org,(509)369-4145,https://www.klickitat.wednet.edu,Klickitat,Klickitat,3,14,Public School District,1,1170340910.30389,206802.591674295
126,100224,06801,112,Educational Service District 112,20403,Roosevelt School District,Roosevelt,,"615 CHINOOK AVE, ROOSEVELT, Washington, 99356-0248","PO BOX 248, ROOSEVELT, Washington, 99356-0248",Tom  Whitmore,twhitmor@esd112.wednet.edu,(509)384-5462,https://www.rooseveltschooldistrict.net/,Klickitat,Klickitat,3,14,Public School District,1,2522808612.06653,354632.293575986
127,100094,39801,105,Educational Service District 105,20404,Goldendale School District,Goldendale,,"604 E. BROOKS ST, GOLDENDALE, Washington, 98620","604 E. BROOKS ST, GOLDENDALE, Washington, 98620",Ellen  Perconti,ellen.perconti@gsd404.org,(509)773-5177,https://www.goldendaleschools.org/,Klickitat,Klickitat,3,14,Public School District,4,16602382572.8884,808898.48954271
128,100295,06801,112,Educational Service District 112,20405,White Salmon Valley School District,White Salmon Valley,,"171 NW WASHINGTON, WHITE SALMON, Washington, 98672-0157","PO BOX 157, WHITE SALMON, Washington, 98672-0157",Jerry A Lewis,jerry.lewis@whitesalmonschools.org,(509)493-1500,https://www.wsvsd.org/,Klickitat,"Klickitat, Skamania",3,14,Public School District,1,4695540719.34491,305262.887537545
129,100135,06801,112,Educational Service District 112,20406,Lyle School District,Lyle,,"625 KEASEY STREET, LYLE, Washington, 98635-0009","PO BOX 368, LYLE, Washington, 98635-0009",Ann  Varkados,ann.varkados@lyleschools.org,(509)365-2191,https://www.lyleschools.org,Klickitat,Klickitat,3,14,Public School District,1,4902751315.1062,474490.835412747
130,100161,34801,113,Capital Region ESD 113,21014,Napavine School District,Napavine,,"413 E PARK ST, Napavine, Washington, 98565-0840","PO BOX 840, Napavine, Washington, 98565-0840",SHANE  SCHUTZ,sschutz@napavineschools.org,(360)262-3303,http://www.napavineschools.org/,Lewis,Lewis,3,20,Public School District,1,669166195.328094,179471.271997465
131,100082,34801,113,Capital Region ESD 113,21036,Evaline School District,Evaline,,"111 SCHOOLHOUSE RD, WINLOCK, Washington, 98596-9718","111 SCHOOLHOUSE RD, WINLOCK, Washington, 98596-9718",Kyle  MacDonald,kmacdonald@evalinesd.k12.wa.us,(360)785-3460,https://www.evalinesd.k12.wa.us/,Lewis,Lewis,3,19,Public School District,1,218511347.067047,71924.6339043381
132,100154,34801,113,Capital Region ESD 113,21206,Mossyrock School District,Mossyrock,,"545 WILLIAMS ST, MOSSYROCK, Washington, 98564-0478","PO BOX 478, MOSSYROCK, Washington, 98564-0478",Glenn E. Malone,gmalone@mossyrockschools.org,(360)983-3181,http://www.mossyrockschools.org/,Lewis,Lewis,3,20,Public School District,1,5246998220.7811,382514.4945892
133,100152,34801,113,Capital Region ESD 113,21214,Morton School District,Morton,,"152 WESTLAKE AVE, MORTON, Washington, 98356-0048","PO BOX 1219, MORTON, Washington, 98356-0048",John  Hannah,jhannah@morton.k12.wa.us,(360)496-5300,https://www.morton.k12.wa.us/,Lewis,Lewis,3,20,Public School District,1,6912132734.181,584325.158271417
134,100011,34801,113,Capital Region ESD 113,21226,Adna School District,Adna,,"179 DIECKMAN RD, ADNA, Washington, 98522-0118","PO BOX 118, ADNA, Washington, 98522-0118",James   Forrest,forrestj@adnaschools.org,(360)748-0362,https://www.adnaschools.org,Lewis,Lewis,3,20,Public School District,1,2179246570.3829,292737.581068245
135,100299,34801,113,Capital Region ESD 113,21232,Winlock School District,Winlock,,"401 NW 1ST STREET, WINLOCK, Washington, 98596-9417","PO BOX 128, WINLOCK, Washington, 98596-9417",GARRY  CAMERON,gcameron@winlock.wednet.edu,(360)785-3582,https://www.winlockschools.org/,Lewis,Lewis,3,20,Public School District,1,1416583147.69669,244385.433208485
136,100025,34801,113,Capital Region ESD 113,21234,Boistfort School District,Boistfort,,"983 BOISTFORT RD, CURTIS, Washington, 98538-9734","983 BOISTFORT RD, CURTIS, Washington, 98538-9734",  ,,,https://boistfortbraves.com/,Lewis,Lewis,3,19,Public School District,1,4045185902.52966,348909.852650243
137,100267,34801,113,Capital Region ESD 113,21237,Toledo School District,Toledo,,"116 RAMSEY WAY, TOLEDO, Washington, 98591-0469","PO BOX 469, TOLEDO, Washington, 98591-0469",Chris  Rust,crust@toledoschools.us,(360)864-6325,http://www.toledoschools.us/,Lewis,Lewis,3,20,Public School District,1,3631159643.17068,358517.095497717
138,100184,34801,113,Capital Region ESD 113,21300,Onalaska School District,Onalaska,,"540 CARLISLE AVE, ONALASKA, Washington, 98570-9654","540 CARLISLE AVE, ONALASKA, Washington, 98570-9654",Jeff  Davis,jdavis@onysd.wednet.edu,(360)978-4111,http://www.onysd.wednet.edu/,Lewis,Lewis,3,20,Public School District,1,6342154502.29086,449307.837076156
139,100198,34801,113,Capital Region ESD 113,21301,Pe Ell School District,Pe Ell,,"519 NORTH 2ND, PE ELL, Washington, 98572-0368","PO BOX 368, PE ELL, Washington, 98572-0368",Kyle  MacDonald,kmacdonald@peell.k12.wa.us,(360)291-3244,https://www.peell.k12.wa.us/,Lewis,"Lewis, Pacific",3,20,Public School District,1,4126548758.88345,375470.797615694
140,100041,34801,113,Capital Region ESD 113,21302,Chehalis School District,Chehalis,,"310 SW 16TH ST, CHEHALIS, Washington, 98532-3809","310 SW 16TH ST, CHEHALIS, Washington, 98532-3809",Christine  Moloney,cmoloney@chehalisschools.org,(360)807-7200,https://chehalisschools.org/,Lewis,Lewis,3,20,Public School District,1,2659271196.92749,388227.483859539
141,100293,34801,113,Capital Region ESD 113,21303,White Pass School District,White Pass,,"516 Silverbrook, Randle, Washington, 98377","PO BOX 188, RANDLE, Washington, 98377-9208",Paul  Farris,pfarris@whitepass.k12.wa.us,(360)497-3791,https://www.whitepass.k12.wa.us,Lewis,Lewis,3,20,Public School District,1,25294873964.8319,827743.078893971
142,100040,34801,113,Capital Region ESD 113,21401,Centralia School District,Centralia,,"2320 BORST AVE, CENTRALIA, Washington, 98531-0610","PO Box 610, CENTRALIA, Washington, 98531",Lisa  Grant,lgrant@centralia.wednet.edu,(360)330-7600,https://www.centralia.k12.wa.us,Lewis,"Lewis, Thurston",3,20,Public School District,1,4028330577.16171,434108.601398277
143,100248,32801,101,Educational Service District 101,22008,Sprague School District,Sprague,,"S 512 F STREET, SPRAGUE, Washington, 99032-0305","PO BOX 305, SPRAGUE, Washington, 99032-0305",William  Ressel,bressel@sprague.wednet.edu,(509)257-2511,https://www.spraguelamont.org,Lincoln,"Adams, Lincoln","4, 5",13,Public School District,5,5305663956.11011,378933.112159508
144,100215,32801,101,Educational Service District 101,22009,Reardan-Edwall School District,Reardan-Edwall,,"116 S Lake Street, REARDAN, Washington, 99029-0225","PO BOX 225, REARDAN, Washington, 99029-0225",Eric J Sobotta,esobotta@reardansd.net,(509)869-3231,http://www.reardan.net,Lincoln,"Lincoln, Spokane",5,13,Public School District,5,10996581522.7942,818622.172681121
145,100012,32801,101,Educational Service District 101,22017,Almira School District,Almira,,"310 S 3RD ST, ALMIRA, Washington, 99103-0217","PO BOX 217, ALMIRA, Washington, 99103-0217",Shauna L Schmerer,sschmerer@almirasd.org,(509)639-2414,http://www.achsd.org/,Lincoln,"Grant, Lincoln","4, 5",13,Public School District,5,5793439699.85339,413452.697702611
146,100060,32801,101,Educational Service District 101,22073,Creston School District,Creston,,"485 SE E ST, CRESTON, Washington, 99117-0017","485 SE E ST, CRESTON, Washington, 99117-0017",Charles  Wyborney,cwyborney@wcsd.wednet.edu,(509)636-2721,https://www.wcsd.wednet.edu/,Lincoln,Lincoln,5,13,Public School District,5,7183026890.26355,479155.377615519
147,100180,32801,101,Educational Service District 101,22105,Odessa School District,Odessa,,"311 S FIRST ST, ODESSA, Washington, 99159-0248","PO BOX 248, ODESSA, Washington, 99159-0248",Dan  Read,readd@odessa.wednet.edu,(509)982-2668,https://www.odessa.wednet.edu/,Lincoln,"Adams, Grant, Lincoln","4, 5",13,Public School District,5,16722538482.8207,793160.985236331
148,100296,32801,101,Educational Service District 101,22200,Wilbur School District,Wilbur,,"202 POPE ST, WILBUR, Washington, 99185-1090","PO BOX 1090, WILBUR, Washington, 99185-1090",Charles R Wyborney,cwyborney@wcsd.wednet.edu,(509)647-2221,https://www.wcsd.wednet.edu/,Lincoln,Lincoln,5,13,Public School District,5,8718594657.36475,527395.012234971
149,100103,32801,101,Educational Service District 101,22204,Harrington School District,Harrington,,"100 S First, HARRINGTON, Washington, 99134-0204","PO Box 204, HARRINGTON, Washington, 99134-0248",Wayne  Massie,wmassie@harringtonsd.org,(509)253-4331,https://www.harringtonsd.org/,Lincoln,Lincoln,5,13,Public School District,5,9062922468.88257,572058.905834045
150,100065,32801,101,Educational Service District 101,22207,Davenport School District,Davenport,,"801 7th Street, DAVENPORT, Washington, 99122-9548","801 7th Street, DAVENPORT, Washington, 99122-9548",James  Kowalkowski,jkowalkowski@davenportsd.org,(509)725-1481,https://www.davenport.wednet.edu/,Lincoln,Lincoln,5,13,Public School District,5,9336836088.0636,696411.800379152
151,100246,34801,113,Capital Region ESD 113,23042,Southside School District,Southside,,"161 SE COLLIER RD, SHELTON, Washington, 98584-8367","161 SE COLLIER RD, SHELTON, Washington, 98584-8367",Doris C Bolender,DBolender@southsideschool.org,(360)426-8437,https://southsideschool.org/,Mason,Mason,10,35,Public School District,1,277247479.549927,76748.8858135723
152,100099,34801,113,Capital Region ESD 113,23054,Grapeview School District,Grapeview,,"822 E MASON BENSON RD, GRAPEVIEW, Washington, 98546-9514","822 E MASON BENSON RD, GRAPEVIEW, Washington, 98546-9514",Kurt  Hilyard,khilyard@gsd54.org,(360)426-4921,https://www.gsd54.org/,Mason,Mason,6,35,Public School District,1,885789336.686951,160290.082847057
153,100235,34801,113,Capital Region ESD 113,23309,Shelton School District,Shelton,,"700 S 1ST ST, SHELTON, Washington, 98584-3602","700 S 1ST ST, SHELTON, Washington, 98584-3602",Alex  Apostle,aapostle@sheltonschools.org,(360)426-8231,https://www.sheltonschools.org/,Mason,Mason,"6, 10",35,Public School District,1,4560196297.73688,380206.559738847
154,100140,34801,113,Capital Region ESD 113,23311,Mary M Knight School District,Mary M Knight,,"2987 W MATLOCK BRADY RD, ELMA, Washington, 98541-9713","2987 W MATLOCK BRADY RD, ELMA, Washington, 98541-9713",Matthew  Mallery,mmallery@mmk.wednet.edu,(360)426-6767,https://www.marymknight.com/,Mason,"Grays Harbor, Mason",6,"22, 35",Public School District,1,4984535990.4408,340380.895909382
155,100200,34801,113,Capital Region ESD 113,23402,Pioneer School District,Pioneer,,"112 E. Spencer Lake Road, SHELTON, Washington, 98584","112 E. Spencer Lake Road, SHELTON, Washington, 98584-7306",Jill  Diehl,jdiehl@psd402.org,(360)426-9115,https://www.psd402.org,Mason,Mason,6,35,Public School District,1,2509997930.24902,265523.165331071
156,100170,18801,114,Olympic Educational Service District 114,23403,North Mason School District,North Mason,,"250 East Campus Drive, Belfair, Washington, 98528","250 East Campus Drive, Belfair, Washington, 98528",Dana  Rosenbach,drosenbach@northmasonschools.org,(360)277-2300,https://www.northmasonschools.org/,Mason,"Kitsap, Mason",6,35,Public School District,2,4322082707.04901,306918.756639708
157,100107,34801,113,Capital Region ESD 113,23404,Hood Canal School District,Hood Canal,,"111 N STATE ROUTE 106, SHELTON, Washington, 98584-9703","111 N STATE ROUTE 106, SHELTON, Washington, 98584-9703",Nicola  Grubbs,ngrubbs@hoodcanalschool.org,(360)877-5463,https://www.hoodcanal.wednet.edu/,Mason,Mason,6,35,Public School District,1,12901199795.8307,571719.238735765
158,100163,04801,171,North Central Educational Service District 171,24014,Nespelem School District #14,Nespelem #14,,"229 SCHOOLHOUSE LOOP RD, NESPELEM, Washington, 99155-0291","PO BOX 291, NESPELEM, Washington, 99155-0291",Effie  Dean,edean@nsdeagles.org,(509)634-4541,https://www.nsdeagles.org,Okanogan,Okanogan,4,12,Public School District,5,11316663529.4248,513807.597384979
159,100183,04801,171,North Central Educational Service District 171,24019,Omak School District,Omak,,"619 W BARTLETT AVE, OMAK, Washington, 98841-9700","PO BOX 833, OMAK, Washington, 98841-9700",Michael L Porter,mporter@omaksd.org,(509)826-0320,http://www.omaksd.org/,Okanogan,Okanogan,4,"7, 12",Public School District,4,13868001829.213,792876.50349794
160,100181,04801,171,North Central Educational Service District 171,24105,Okanogan School District,Okanogan,,"115 ROSE ST., OKANOGAN, Washington, 98840-0592","PO BOX 592, OKANOGAN, Washington, 98840-0592",Ashley  Goetz,agoetz@oksd.wednet.edu,(509)422-3629,https://www.oksd.wednet.edu,Okanogan,Okanogan,4,7,Public School District,4,15869520304.5944,657087.243852075
161,100027,04801,171,North Central Educational Service District 171,24111,Brewster School District,Brewster,,"520 W Main, BREWSTER, Washington, 98812-0097","P.O. Box 97, Brewster, Washington, 98812",Eric  Driessen,edriessen@brewsterbears.org,(509)689-3418,https://www.brewsterbears.org/,Okanogan,"Douglas, Okanogan",4,12,Public School District,4,5162792666.86462,422482.902909217
162,100196,04801,171,North Central Educational Service District 171,24122,Pateros School District,Pateros,,"344 W BEACH ST, PATEROS, Washington, 98846-0098","PO BOX 98, PATEROS, Washington, 98846-0098",Greg  Goodnight,ggoodnight@pateros.org,(509)923-2751,https://www.pateros.org/,Okanogan,"Chelan, Okanogan","4, 8",12,Public School District,4,6937903912.85986,570112.637740824
163,100148,04801,171,North Central Educational Service District 171,24350,Methow Valley School District,Methow Valley,,"18 TWIN LAKES RD, WINTHROP, Washington, 98862-9713","18 TWIN LAKES RD, WINTHROP, Washington, 98862-9713",Tom  Venable,tvenable@methow.org,(509)996-9205,https://methow.org/,Okanogan,Okanogan,4,12,Public School District,4,47803558598.6929,1195393.75838545
164,100268,04801,171,North Central Educational Service District 171,24404,Tonasket School District,Tonasket,,"35 DO E HIGHWAY 20, TONASKET, Washington, 98855-9601","35 DO HIGHWAY 20 EAST, TONASKET, Washington, 98855-9601",Steven  McCullough,smccullough@tonasket.wednet.edu,(509)486-2126,http://www.tonasket.wednet.edu,Okanogan,Okanogan,4,7,Public School District,4,34946422756.2944,1172858.87353452
165,100190,04801,171,North Central Educational Service District 171,24410,Oroville School District,Oroville,,"816 JUNIPER, OROVILLE, Washington, 98844-0000","816 JUNIPER, OROVILLE, Washington, 98844-0000",Jeff  Hardesty,jeff.hardesty@oroville.wednet.edu,(509)476-2281,https://oroville.wednet.edu,Okanogan,Okanogan,4,7,Public School District,4,9737856281.60474,535896.260823524
166,100178,06801,112,Educational Service District 112,25101,Ocean Beach School District,Ocean Beach,,"500 Washington Ave S, Long Beach, Washington, 98631-0000","PO Box 778, Long Beach, Washington, 98631-0778",Amy  Huntley,amy.huntley@oceanbeachschools.org,(360)642-3739,https://www.ocean.k12.wa.us/,Pacific,Pacific,3,19,Public School District,1,9548577043.70589,531243.670369186
167,100214,34801,113,Capital Region ESD 113,25116,Raymond School District,Raymond,,"1016 COMMERCIAL ST, RAYMOND, Washington, 98577-2631","1016 COMMERCIAL ST, RAYMOND, Washington, 98577-2631",Steve  Holland,sholland@raymondk12.org,(360)942-3415,https://raymondk12.org/,Pacific,Pacific,3,19,Public School District,1,2630913174.62506,363006.852555959
168,100242,34801,113,Capital Region ESD 113,25118,South Bend School District,South Bend,,"405 E 1ST, SOUTH BEND, Washington, 98586-0437","PO BOX 437, SOUTH BEND, Washington, 98586-0437",Jon  Tienhaara,jtienhaa@southbendschools.org,(360)875-6041,https://www.southbend.wednet.edu/,Pacific,Pacific,3,19,Public School District,1,4214094934.81985,375241.444361591
169,100162,06801,112,Educational Service District 112,25155,Naselle-Grays River Valley School District,Naselle-Grays River Valley,,"793 STATE ROUTE 4, NASELLE, Washington, 98638-8541","793 STATE ROUTE 4, NASELLE, Washington, 98638-8541",Lisa  Nelson,lnelson@naselleschools.org,(360)484-7121,http://www.naselle.wednet.edu/,Pacific,"Pacific, Wahkiakum",3,19,Public School District,1,7710090077.55597,531869.635112176
170,100297,34801,113,Capital Region ESD 113,25160,Willapa Valley School District,Willapa Valley,,"22 VIKING WAY, MENLO, Washington, 98561-9998","PO BOX 128, MENLO, Washington, 98561-9998",Nancy  Morris,nancym@willapavalley.org,(360)942-5855,https://www.willapavalley.org/,Pacific,Pacific,3,19,Public School District,1,8071217917.28787,455787.309530831
171,100171,34801,113,Capital Region ESD 113,25200,North River School District,North River,,"2867 N RIVER RD, COSMOPOLIS, Washington, 98537-9743","2867 N RIVER RD, COSMOPOLIS, Washington, 98537-9743",Lindsey  Maehlum,lmaehlum@nr.k12.wa.us,(360)532-3079,http://www.nr.k12.wa.us/,Pacific,"Grays Harbor, Pacific","3, 6",19,Public School District,1,3409261409.12735,311327.115021815
172,100164,32801,101,Educational Service District 101,26056,Newport School District,Newport,,"1380 W 5TH, NEWPORT, Washington, 99156-0070","PO BOX 70, NEWPORT, Washington, 99156-0070",David E. Smith,smithdave@newportgriz.com,(509)447-3167 Ext.4501,https://www.newportgriz.com/,Pend Oreille,"Pend Oreille, Spokane",5,7,Public School District,5,10108357027.2266,724407.319721304
173,100062,32801,101,Educational Service District 101,26059,Cusick School District,Cusick,,"305 MONUMENTAL WAY, CUSICK, Washington, 99119-9761","305 MONUMENTAL WAY, CUSICK, Washington, 99119-9761",Don  Hawpe,dhawpe@cusick.wednet.edu,(509)445-1125,https://www.cusick.wednet.edu/,Pend Oreille,Pend Oreille,5,7,Public School District,5,12855909489.2988,596399.882256633
174,100232,32801,101,Educational Service District 101,26070,Selkirk School District,Selkirk,,"219 Park St, METALINE FALLS, Washington, 99153-0129","PO BOX 129, METALINE FALLS, Washington, 99153-0129",Nancy  Lotze,nlotze@selkirkschools.org,(509)446-2951,https://www.selkirkschools.org,Pend Oreille,Pend Oreille,5,7,Public School District,5,16474978428.01,601060.097515922
175,100254,17801,121,Puget Sound Educational Service District 121,27001,Steilacoom Hist. School District,Steilacoom Hist.,,"511 CHAMBERS ST, STEILACOOM, Washington, 98388-3311","511 CHAMBERS ST, STEILACOOM, Washington, 98388-3311",Kathi  Weight,kweight@steilacoom.k12.wa.us,(253)983-2200,https://www.steilacoom.k12.wa.us/,Pierce,Pierce,10,28,Public School District,2,1611253960.20361,228936.748058638
176,100207,17801,121,Puget Sound Educational Service District 121,27003,Puyallup School District,Puyallup,,"302 2ND ST SE, PUYALLUP, Washington, 98372-3220","PO BOX 370, PUYALLUP, Washington, 98372-3220",John A Polm Jr.,polmjja@puyallup.k12.wa.us,(253)840-8950,https://www.puyallup.k12.wa.us/,Pierce,Pierce,"8, 10","2, 25, 31",Public School District,2,1497192839.76746,254565.474046815
177,100261,17801,121,Puget Sound Educational Service District 121,27010,Tacoma School District,Tacoma,,"601 S 8TH , TACOMA, Washington, 98401-1357","PO BOX 1357, TACOMA, Washington, 98401-1357",Carla  Santorno,Csantor@tacoma.k12.wa.us,(253)571-1010,https://www.tacomaschools.org/,Pierce,Pierce,"6, 9, 10","27, 28, 29",Public School District,2,1938058932.9162,242871.589542754
178,100033,17801,121,Puget Sound Educational Service District 121,27019,Carbonado School District,Carbonado,,"427 4TH ST, CARBONADO, Washington, 98323-0131","PO BOX 131, CARBONADO, Washington, 98323-0131",Jessie  Sprouse,jsprouse@carbonado.k12.wa.us,(360)829-0121,https://www.carbonado.k12.wa.us/,Pierce,Pierce,8,31,Public School District,2,4335082637.8783,421493.644206738
179,100275,17801,121,Puget Sound Educational Service District 121,27083,University Place School District,University Place,,"3717 GRANDVIEW DR W, UNIVERSITY PLACE, Washington, 98466-2138","3717 GRANDVIEW DR W, UNIVERSITY PLACE, Washington, 98466-2138",Jeff  Chamberlin,jchamberlin@upsd83.org,(253)566-5600,https://www.upsd83.org,Pierce,Pierce,10,28,Public School District,2,269605506.649719,95025.4214544297
180,100259,17801,121,Puget Sound Educational Service District 121,27320,Sumner School District,Sumner,,"1202 WOOD AVE, SUMNER, Washington, 98390-1933","1202 WOOD AVE, SUMNER, Washington, 98390-1933",Laurie  Dent,laurie_Dent@sumnersd.org,(253)891-6080,https://www.sumnersd.org,Pierce,Pierce,"8, 10",31,Public School District,2,983167925.739319,250516.423124757
181,100068,17801,121,Puget Sound Educational Service District 121,27343,Dieringer School District,Dieringer,,"1320 178TH AVE E, Lake Tapps, Washington, 98391-6411","1320 178TH AVE E, Lake Tapps, Washington, 98391-6411",Michael  Farmer,mfarmer@dieringer.wednet.edu,(253)862-2537,https://www.dieringer.wednet.edu/,Pierce,Pierce,"8, 10",31,Public School District,2,363306769.37146,141274.665159518
182,100191,17801,121,Puget Sound Educational Service District 121,27344,Orting School District,Orting,,"121 Whitesell St NE, ORTING, Washington, 98360-8403","121 Whitesell St NE, ORTING, Washington, 98360-8403",Tony  Apostle,apostlet@orting.wednet.edu,(360)893-6500,https://www.ortingschools.org/,Pierce,Pierce,8,2,Public School District,2,1284495298.80298,220980.957873193
183,100047,17801,121,Puget Sound Educational Service District 121,27400,Clover Park School District,Clover Park,,"10903 GRAVELLY LAKE DR SW, LAKEWOOD, Washington, 98499-1341","10903 GRAVELLY LAKE DR SW, LAKEWOOD, Washington, 98499-1341",Ron  Banner,rbanner@cloverpark.k12.wa.us,(253)583-5060,http://www.cloverpark.k12.wa.us/,Pierce,Pierce,10,"28, 29",Public School District,2,1823107470.94946,284326.684264556
184,100199,17801,121,Puget Sound Educational Service District 121,27401,Peninsula School District,Peninsula,,"14015 62ND AVE NW, GIG HARBOR, Washington, 98332-8698","14015 62ND AVE NW, GIG HARBOR, Washington, 98332-8698",Arthur  Jarvis,jarvisa@psd401.net,(253)530-1002,https://www.psd401.net/,Pierce,Pierce,6,26,Public School District,2,4892585886.6778,333285.43463474
185,100090,17801,121,Puget Sound Educational Service District 121,27402,Franklin Pierce School District,Franklin Pierce,,"315 129TH ST S, TACOMA, Washington, 98444-5099","315 129TH ST S, TACOMA, Washington, 98444-5099",Lance  Goodpaster,lgoodpaster@fpschools.org,(253)298-3010,https://www.fpschools.org/,Pierce,Pierce,10,"25, 29",Public School District,2,581528618.964478,129739.496949564
186,100022,17801,121,Puget Sound Educational Service District 121,27403,Bethel School District,Bethel,,"516 176th St E, Spanaway, Washington, 98387","516 176th St E, Spanaway, Washington, 98387",Tom  Seigel,tseigel@bethelsd.org,(253)800-6010,https://www.bethelsd.org/,Pierce,Pierce,"8, 10","2, 28, 29",Public School District,2,5676147738.03369,504829.430665303
187,100074,17801,121,Puget Sound Educational Service District 121,27404,Eatonville School District,Eatonville,,"200 LYNCH ST W, EATONVILLE, Washington, 98328-0698","PO BOX 698, EATONVILLE, Washington, 98328-0698",Krestin  Bahr,k.bahr@eatonville.wednet.edu,(360)879-1000,https://www.eatonville.wednet.edu/,Pierce,"Lewis, Pierce","3, 8",2,Public School District,2,12555590500.4426,770337.060936935
188,100294,17801,121,Puget Sound Educational Service District 121,27416,White River School District,White River,,"240 N A ST, BUCKLEY, Washington, 98321-2050","PO BOX 2050, BUCKLEY, Washington, 98321-2050",Janel  Keating,jkeating@whiteriver.wednet.edu,(360)829-3814,https://www.whiteriver.wednet.edu,Pierce,Pierce,8,31,Public School District,2,11335058103.7037,670051.541345879
189,100088,17801,121,Puget Sound Educational Service District 121,27417,Fife School District,Fife,,"5802 20TH ST E, TACOMA, Washington, 98424-2000","5802 20TH ST E, TACOMA, Washington, 98424-2000",Kevin  Alfano,kalfano@fifeschools.com,(253)517-1000,https://www.fifeschools.com,Pierce,"King, Pierce","8, 9, 10","25, 30, 31",Public School District,2,334541918.89386,122678.60249536
190,100234,29801,189,Northwest Educational Service District 189,28010,Shaw Island School District,Shaw Island,,"44 HOFFMAN COVE RD, SHAW ISLAND, Washington, 98286-0426","PO BOX 426, SHAW ISLAND, Washington, 98286-0426",Jennifer  Swanson,jswanson@shaw.k12.wa.us,(360)468-2570,https://www.shawislandschool.org/,San Juan,San Juan,2,40,Public School District,3,474529695.481323,96891.7027160389
191,100186,29801,189,Northwest Educational Service District 189,28137,Orcas Island School District,Orcas Island,,"557 SCHOOL RD, EASTSOUND, Washington, 98245-9457","557 SCHOOL RD, EASTSOUND, Washington, 98245-9457",Eric   Webb,ewebb@orcas.k12.wa.us,(360)376-1501,http://www.orcasislandschools.org,San Juan,San Juan,2,40,Public School District,3,6374118314.005,357590.712031604
192,100134,29801,189,Northwest Educational Service District 189,28144,Lopez School District,Lopez,,"86 SCHOOL RD, LOPEZ ISLAND, Washington, 98261-8000","86 SCHOOL RD, LOPEZ ISLAND, Washington, 98261-8000",Brian   Auckland ,bauckland@lopezislandschool.org,(360)468-2202,https://www.lopezislandschool.org/,San Juan,San Juan,2,40,Public School District,3,3275747760.4093,238603.363173093
193,100227,29801,189,Northwest Educational Service District 189,28149,San Juan Island School District,San Juan Island,,"285 BLAIR STREET, FRIDAY HARBOR, Washington, 98250-0458","PO BOX 458, FRIDAY HARBOR, Washington, 98250-0458",Calvin Frederick Woods,fredwoods@sjisd.org,(360)370-7905,https://www.sjisd.wednet.edu,San Juan,San Juan,2,40,Public School District,3,7227799057.01453,439863.138160976
194,100054,29801,189,Northwest Educational Service District 189,29011,Concrete School District,Concrete,,"45389 AIRPORT WAY , CONCRETE, Washington, 98237-9355","45389 AIRPORT WAY , CONCRETE, Washington, 98237-9355",Wayne Paul Barrett,wbarrett@concrete.k12.wa.us,(360)853-4000,https://www.concrete.k12.wa.us/,Skagit,"Skagit, Whatcom",1,39,Public School District,3,53476511770.7781,1605157.36506518
195,100030,29801,189,Northwest Educational Service District 189,29100,Burlington-Edison School District,Burlington-Edison,,"927 E FAIRHAVEN AVE, BURLINGTON, Washington, 98233-1900","927 E FAIRHAVEN AVE, BURLINGTON, Washington, 98233-1900",Laurel W Browning,lbrowning@be.wednet.edu,(360)757-3311,https://www.be.wednet.edu,Skagit,Skagit,2,"10, 40",Public School District,3,4234116722.65198,291865.312483112
196,100230,29801,189,Northwest Educational Service District 189,29101,Sedro-Woolley School District,Sedro-Woolley,,"801 TRAIL RD, SEDRO WOOLLEY, Washington, 98284-9387","801 TRAIL RD, SEDRO WOOLLEY, Washington, 98284-9387",Phil  Brockman,pbrockman@swsd.k12.wa.us,(360)855-3500,https://www.swsd.k12.wa.us/,Skagit,"Skagit, Whatcom","1, 2","10, 39",Public School District,3,11567084689.4929,636661.685637486
197,100013,29801,189,Northwest Educational Service District 189,29103,Anacortes School District,Anacortes,,"2200 M AVE, ANACORTES, Washington, 98221-3794","2200 M AVE, ANACORTES, Washington, 98221-3794",Justin  Irish,jirish@asd103.org,(360)503-1210,http://www.asd103.org/,Skagit,Skagit,2,"10, 40",Public School District,3,3874300172.03931,258316.404322269
198,100123,29801,189,Northwest Educational Service District 189,29311,La Conner School District,La Conner,,"305 N 6TH ST, LA CONNER, Washington, 98257-2103","PO BOX 2103, LA CONNER, Washington, 98257-2103",Whitney  Meissner,wmeissner@lc.k12.wa.us,(360)466-3171,https://www.lcsd.wednet.edu/,Skagit,Skagit,2,10,Public School District,3,1379183092.57605,175187.927682897
199,100055,29801,189,Northwest Educational Service District 189,29317,Conway School District,Conway,,"19710 STATE ROUTE 534, MOUNT VERNON, Washington, 98274-8026","19710 STATE ROUTE 534, MOUNT VERNON, Washington, 98274-8026",Jeff  Cravy,jcravy@conway.k12.wa.us,(360)445-5785,https://www.conway.k12.wa.us,Skagit,Skagit,1,10,Public School District,3,1972021957.6261,215442.348513434
200,100158,29801,189,Northwest Educational Service District 189,29320,Mount Vernon School District,Mount Vernon,,"124 E LAWRENCE ST, MOUNT VERNON, Washington, 98273-2999","124 E LAWRENCE ST, MOUNT VERNON, Washington, 98273-2999",Ismael  Vivanco,ivivanco@mvsd320.org,(360)428-6181,http://www.mv.k12.wa.us,Skagit,Skagit,"1, 2","10, 40",Public School District,3,1072206822.88074,182508.138606011
201,100237,06801,112,Educational Service District 112,30002,Skamania School District,Skamania,,"122 BUTLER LOOP RD, SKAMANIA, Washington, 98648-6021","122 BUTLER LOOP RD, SKAMANIA, Washington, 98648-6021",Ralph H. Pruitt,rpruitt@skamania.k12.wa.us,(509)427-8239,https://skamaniaschooldistrict.org/,Skamania,Skamania,3,14,Public School District,1,6335867135.88895,727835.864309828
202,100157,06801,112,Educational Service District 112,30029,Mount Pleasant School District,Mount Pleasant,,"152 MARBLE RD, WASHOUGAL, Washington, 98671-7913","152 MARBLE RD, WASHOUGAL, Washington, 98671-7913",Vicki  Sovold-Prendergast,vicki.prendergast@mtpleasantschool.org,(360)835-3371,https://www.mtpleasantschool.org,Skamania,"Clark, Skamania",3,14,Public School District,1,212989883.265541,75695.9806871515
203,100149,06801,112,Educational Service District 112,30031,Mill A School District,Mill A,,"1142 JESSUP RD, COOK, Washington, 98605-9120","1142 JESSUP RD, COOK, Washington, 98605-9120",Bob  Rogers,brogers@millaschool.org,(509)538-2700,https://www.milla.k12.wa.us/,Skamania,Skamania,3,14,Public School District,1,1604235543.51053,176284.519862802
204,100256,06801,112,Educational Service District 112,30303,Stevenson-Carson School District,Stevenson-Carson,,"350 NW BULLDOG DR, STEVENSON, Washington, 98648","PO BOX 850, STEVENSON, Washington, 98648-0850",Ingrid  Colvard,colvardi@scsd303.org,(509)427-5674,http://www.scsd303.org/,Skamania,Skamania,3,14,Public School District,1,29282009193.4302,1216737.03748795
205,100083,29801,189,Northwest Educational Service District 189,31002,Everett School District,Everett,,"3900 Broadway, Everett, Washington, 98201-5033","PO BOX 2098, Everett, Washington, 98213-2999",Ian  Saltzman,ISaltzman@everettsd.org,(425)385-4019,https://www.everettsd.org,Snohomish,Snohomish,"1, 2","1, 21, 38, 39, 44",Public School District,3,1537529217.70203,296363.489298341
206,100126,29801,189,Northwest Educational Service District 189,31004,Lake Stevens School District,Lake Stevens,,"12309 22ND ST NE, LAKE STEVENS, Washington, 98258","12309 22ND ST NE, LAKE STEVENS, Washington, 98258",Amy Beth  Cook,amybeth_cook@lkstevens.wednet.edu,(425)335-1500,https://www.lkstevens.wednet.edu/,Snohomish,Snohomish,"1, 2",44,Public School District,3,799283449.148193,147299.804341526
207,100159,29801,189,Northwest Educational Service District 189,31006,Mukilteo School District,Mukilteo,,"9401 SHARON DR, EVERETT, Washington, 98204-2699","9401 SHARON DR, EVERETT, Washington, 98204-2699",Alison  Brynelson,BrynelsonAX@mukilteo.wednet.edu,(425)356-1220,https://www.mukilteoschools.org,Snohomish,Snohomish,2,"21, 38",Public School District,3,1352751467.40778,203931.798006605
208,100075,29801,189,Northwest Educational Service District 189,31015,Edmonds School District,Edmonds,,"20420 68TH AVE W, LYNNWOOD, Washington, 98036-7400","20420 68TH AVE W, LYNNWOOD, Washington, 98036-7400",Gustavo  Balderas,balderasg@edmonds.wednet.edu,(425)431-7003,https://www.edmonds.wednet.edu/,Snohomish,Snohomish,"2, 7","1, 21, 32",Public School District,3,1475527532.4903,166353.97941746
209,100014,29801,189,Northwest Educational Service District 189,31016,Arlington School District,Arlington,,"315 N FRENCH AVE, ARLINGTON, Washington, 98223-1317","315 N FRENCH AVE, ARLINGTON, Washington, 98223-1317",Chrys  Sweeting,csweeting@asd.wednet.edu,(360)618-6200,https://www.asd.wednet.edu,Snohomish,Snohomish,"1, 2",39,Public School District,3,5216899938.68738,487948.00980884
210,100142,29801,189,Northwest Educational Service District 189,31025,Marysville School District,Marysville,,"4220 80TH ST NE, MARYSVILLE, Washington, 98270-3498","4220 80TH ST NE, MARYSVILLE, Washington, 98270-3498",Jason  Thompson,jason_thompson@msvl.k12.wa.us,(360)965-0000,https://www.msd25.org,Snohomish,Snohomish,"1, 2","38, 39, 44",Public School District,3,2335284494.8894,303675.409692122
211,100110,29801,189,Northwest Educational Service District 189,31063,Index School District,Index,,"436 INDEX AVE, INDEX, Washington, 98256","PO BOX 237, INDEX, Washington, 98256-0237",Bradley T Jernberg,bjernberg@index.k12.wa.us,(360)793-1330,https://www.index.k12.wa.us/,Snohomish,Snohomish,1,39,Public School District,3,3611399754.85547,312791.438719636
212,100150,29801,189,Northwest Educational Service District 189,31103,Monroe School District,Monroe,,"200 E FREMONT ST, MONROE, Washington, 98272-2336","200 East Fremont Street, Monroe, Washington, 98272-2336",Justin  Blasko,Blaskoj@monroe.wednet.edu,(360)804-2500,https://www.monroe.wednet.edu/,Snohomish,Snohomish,1,"1, 32, 39",Public School District,3,2288308685.85742,289965.972589089
213,100239,29801,189,Northwest Educational Service District 189,31201,Snohomish School District,Snohomish,,"1601 AVENUE D, SNOHOMISH, Washington, 98290-1799","1601 AVENUE D, SNOHOMISH, Washington, 98290-1799",Kent  Kultgen,Kent.Kultgen@sno.wednet.edu,(360)563-7280,https://www.sno.wednet.edu/,Snohomish,Snohomish,"1, 2","1, 39, 44",Public School District,3,3575355813.69727,434888.811204332
214,100128,29801,189,Northwest Educational Service District 189,31306,Lakewood School District,Lakewood,,"17110 16TH DR NE, Marysville, Washington, 98271","PO BOX 220, NORTH LAKEWOOD, Washington, 98259-0220",Scott  Peacock,speacock@lwsd.wednet.edu,(360)652-4500,https://www.lwsd.wednet.edu/,Snohomish,Snohomish,2,38,Public School District,3,624974761.343384,126144.82518695
215,100257,29801,189,Northwest Educational Service District 189,31311,Sultan School District,Sultan,,"514 4TH ST, SULTAN, Washington, 98294-0399","514 4th Street, SULTAN, Washington, 98294-9474",Dan  Chaplik,dan.chaplik@sultan.k12.wa.us,(360)793-9800,https://www.sultanschools.org,Snohomish,Snohomish,1,39,Public School District,3,9204081904.61511,570476.765436293
216,100064,29801,189,Northwest Educational Service District 189,31330,Darrington School District,Darrington,,"1065 FIR ST, DARRINGTON, Washington, 98241-0027","PO BOX 27, DARRINGTON, Washington, 98241-0027",BUCK   MARSH,bmarsh@dsd.k12.wa.us,(360)436-1323,https://www.darringtonschools.org/,Snohomish,"Skagit, Snohomish",1,39,Public School District,3,16243974006.3562,712498.066626537
217,100098,29801,189,Northwest Educational Service District 189,31332,Granite Falls School District,Granite Falls,,"205 N Alder Avenue, Granite Falls, Washington, 98252","205 N Alder Avenue, Granite Falls, Washington, 98252-8908",Josh  Middleton,jmiddleton@gfalls.wednet.edu,(360)691-7717,https://www.gfalls.wednet.edu,Snohomish,Snohomish,1,39,Public School District,3,13061464974.6655,843399.35890708
218,100250,29801,189,Northwest Educational Service District 189,31401,Stanwood-Camano School District,Stanwood-Camano,,"26920 Pioneer Highway, Stanwood, Washington, 98292-9548","26920 Pioneer Highway, Stanwood, Washington, 98292-9548",Jean  Shumate,jshumate@stanwood.wednet.edu,(360)629-1200,https://www.stanwood.wednet.edu/,Snohomish,"Island, Snohomish",2,10,Public School District,3,4990653299.52832,374738.145729301
219,100247,32801,101,Educational Service District 101,32081,Spokane School District,Spokane,,"200 N BERNARD ST, SPOKANE, Washington, 99201-0282","200 N BERNARD ST, SPOKANE, Washington, 99201-0282",Adam  Swinyard,AdamSw@SpokaneSchools.org,(509)354-7364,https://www.spokaneschools.org,Spokane,Spokane,5,"3, 4, 6",Public School District,5,2340250459.94214,328510.930485704
220,100187,32801,101,Educational Service District 101,32123,Orchard Prairie School District,Orchard Prairie,,"7626 N. Orchard Prairie Road, SPOKANE, Washington, 99203","7626 N ORCHARD PRAIRIE RD, SPOKANE, Washington, 99217-9766",Howard  King,hking@orchardprairie.org,(509)467-9517,Not Available,Spokane,Spokane,5,4,Public School District,5,159477452.099121,57949.7046839054
221,100100,32801,101,Educational Service District 101,32312,Great Northern School District,Great Northern,,"3115 N SPOTTED RD, SPOKANE, Washington, 99224-8921","3115 N SPOTTED RD, SPOKANE, Washington, 99224-8921",Jeff  Baerwald,jbaerwald@gnsd.k12.wa.us,(509)747-7714,https://wa.greendot.org/excel/,Spokane,Spokane,5,6,Public School District,5,505342357.992676,112333.895924846
222,100165,32801,101,Educational Service District 101,32325,Nine Mile Falls School District,Nine Mile Falls,,"10110 W CHARLES RD, NINE MILE FALLS, Washington, 99026-8623","10110 W CHARLES RD, NINE MILE FALLS, Washington, 99026-8623",Brian L Talbott,btalbott@9mile.org,(509)340-4303,https://www.9mile.org,Spokane,"Spokane, Stevens",5,7,Public School District,5,2119890468.47412,346368.292354184
223,100145,32801,101,Educational Service District 101,32326,Medical Lake School District,Medical Lake,,"116 W THIRD ST, MEDICAL LAKE, Washington, 99022-0128","PO BOX 128, MEDICAL LAKE, Washington, 99022-0128",TIMOTHY D AMES,tames@mlsd.org,(509)565-3100,https://www.mlsd.org/,Spokane,Spokane,5,6,Public School District,5,2068826497.61255,325027.8312595
224,100144,32801,101,Educational Service District 101,32354,Mead School District,Mead,,"2323 E Farwell Rd, MEAD, Washington, 99021-9690","2323 E Farwell Rd, MEAD, Washington, 99021-9690",Shawn  Woodward,Shawn.woodward@mead354.org,(509)465-6014,https://www.mead354.org/,Spokane,Spokane,,"4, 6, 7",Public School District,5,4592972971.03125,411172.752760768
225,100039,32801,101,Educational Service District 101,32356,Central Valley School District,Central Valley,,"19307 E Cataldo Ave, Spokane Valley, Washington, 99016-9489","19307 E Cataldo Ave, Spokane Valley, Washington, 99016-9489",Ben  Small,bsmall@cvsd.org,(509)558-5404,https://www.cvsd.org/,Spokane,Spokane,5,4,Public School District,5,2199188640.96948,230816.604937697
226,100091,32801,101,Educational Service District 101,32358,Freeman School District,Freeman,,"15001 S JACKSON RD, ROCKFORD, Washington, 99030-9755","15001 S JACKSON RD, ROCKFORD, Washington, 99030-9755",Randy L. Russell,rrussell@freemansd.org,(509)291-3695,https://www.freemansd.org/,Spokane,Spokane,5,6,Public School District,5,4019589819.68506,360317.447587129
227,100042,32801,101,Educational Service District 101,32360,Cheney School District,Cheney,,"12414 S Andrus Rd, CHENEY, Washington, 99004","12414 S Andrus Rd, CHENEY, Washington, 99004",Robert W Roettger,rroettger@cheneysd.org,(509)559-4500,https://www.cheneysd.org,Spokane,"Spokane, Whitman",5,6,Public School District,5,10737299081.9257,735397.75755639
228,100070,32801,101,Educational Service District 101,32361,East Valley School District (Spokane),East Valley (Spokane),,"3830 N Sullivan Rd Bldg 1, SPOKANE, Washington, 99216","3830 N Sullivan Rd Bldg 1, SPOKANE, Washington, 99216",Kelly  Shea,SheaK@evsd.org,(509)924-1830,https://www.evsd.org/,Spokane,Spokane,5,4,Public School District,5,2615501826.0791,285939.525102624
229,100130,32801,101,Educational Service District 101,32362,Liberty School District,Liberty,,"29818 S NORTH PINE CREEK RD, SPANGLE, Washington, 99031-9797","29818 S NORTH PINE CREEK RD, SPANGLE, Washington, 99031-9797",Brett  Baum,Bbaum@libertysd.us,(509)624-4415,https://www.libertysd.us/,Spokane,Spokane,5,9,Public School District,5,7674857474.41028,569907.870914948
230,100291,32801,101,Educational Service District 101,32363,West Valley School District (Spokane),West Valley (Spokane),,"2805 N ARGONNE RD, SPOKANE, Washington, 99212-2245","PO BOX 11739, SPOKANE, Washington, 99212-2245",Kyle  Rydell,kyle.rydell@wvsd.org,(509)924-2150,https://www.wvsd.org,Spokane,Spokane,5,4,Public School District,5,516112651.786133,162238.43843358
231,100067,32801,101,Educational Service District 101,32414,Deer Park School District,Deer Park,,"428 N. Main, DEER PARK, Washington, 99006","P.O. BOX 490, DEER PARK, Washington, 99006-0490",Travis W Hanson,travis.hanson@dpsdmail.org,(509)464-5500,https://www.dpsd.org,Spokane,"Pend Oreille, Spokane, Stevens",5,7,Public School District,5,4644106398.70959,443393.955433344
232,100221,32801,101,Educational Service District 101,32416,Riverside School District,Riverside,,"34515 N NEWPORT HWY, CHATTAROY, Washington, 99003-7706","34515 N NEWPORT HWY, CHATTAROY, Washington, 99003-7706",Ken  Russell,ken.russell@rsdmail.org,(509)464-8201,https://www.riversidesd.org,Spokane,"Pend Oreille, Spokane",5,7,Public School District,5,5282634462.41333,482335.531527205
233,100185,32801,101,Educational Service District 101,33030,Onion Creek School District,Onion Creek,,"2006 LOTZE CREEK RD, COLVILLE, Washington, 99114-8602","2006 LOTZE CREEK RD, COLVILLE, Washington, 99114-8602",Bill  Glidewell,bglidewell@ocsd30.org,(509)732-4240,https://www.ocsd30.org/,Stevens,Stevens,5,7,Public School District,5,1435145899.82983,190251.530718273
234,100043,32801,101,Educational Service District 101,33036,Chewelah School District,Chewelah,,"210 N PARK ST, CHEWELAH, Washington, 99109-8970","PO BOX 47, Chewelah, Washington, 99109-8970",  ,,,https://www.chewelah.k12.wa.us/,Stevens,Stevens,5,7,Public School District,5,8582650180.95898,649236.045713072
235,100289,32801,101,Educational Service District 101,33049,Wellpinit School District,Wellpinit,,"6231 Old School Road, WELLPINIT, Washington, 99040-9700","PO BOX 390, WELLPINIT, Washington, 99040-9700",John  Adkins,jadkins@wellpinit.org,(509)258-4535,https://www.wellpinit.org/,Stevens,Stevens,5,"7, 14",Public School District,5,3852971010.78235,296595.823651136
236,100277,32801,101,Educational Service District 101,33070,Valley School District,Valley,,"3030 Huffman Road, Valley, Washington, 99181","3030 Huffman Road, Valley, Washington, 99181",Ben  Ferney,ben.ferney@valleysd.org,(509)937-2791,https://www.valleysd.org/,Stevens,Stevens,5,7,Public School District,5,3212684311.64746,353608.112989904
237,100053,32801,101,Educational Service District 101,33115,Colville School District,Colville,,"217 S HOFSTETTER ST, COLVILLE, Washington, 99114-3239","217 S HOFSTETTER ST, COLVILLE, Washington, 99114-3239",Pete  Lewis,pete.lewis@colsd.org,(509)684-7850,http://www.colsd.org,Stevens,Stevens,5,7,Public School District,5,14824097265.5903,834122.027198533
238,100133,32801,101,Educational Service District 101,33183,Loon Lake School District,Loon Lake,,"4001 MAPLE ST, LOON LAKE, Washington, 99148-9761","4001 MAPLE ST, LOON LAKE, Washington, 99148-9761",Bradley  Van Dyne,bvandyne@loonlakeschool.org,(509)233-2212,http://www.loonlakeschool.org/,Stevens,"Pend Oreille, Stevens",5,7,Public School District,5,1849564780.30884,277782.472864255
239,100258,32801,101,Educational Service District 101,33202,Summit Valley School District,Summit Valley,,"2360 ADDY GIFFORD RD, ADDY, Washington, 99101-9703","2360 ADDY GIFFORD RD, ADDY, Washington, 99101-9703",Kristina  Allen,kallen@svalley.k12.wa.us,(509)935-6362,http://www.svalley.k12.wa.us,Stevens,Stevens,5,7,Public School District,5,1529936612.59619,236880.513599141
240,100085,32801,101,Educational Service District 101,33205,Evergreen School District (Stevens),Evergreen (Stevens),,"3341 ADDY GIFFORD RD, GIFFORD, Washington, 99131-9701","3341 ADDY GIFFORD RD, GIFFORD, Washington, 99131-9701",Bill  Glidewell,bglidewell@svalley.k12.wa.us,(509)722-6084,http://www.evergreen.k12.wa.us/,Stevens,Stevens,5,7,Public School District,5,1494291072.47192,193184.774005934
241,100051,32801,101,Educational Service District 101,33206,Columbia (Stevens) School District,Columbia (Stevens),,"4961 B Hunters Shop Rd, HUNTERS, Washington, 99137-0007","PO BOX 7, HUNTERS, Washington, 99137-0007",Gregory  Price,gprice@columbia206.net,(509)722-3311,https://www.columbia206.com,Stevens,Stevens,5,7,Public School District,5,7064853525.13013,480273.414236235
242,100141,32801,101,Educational Service District 101,33207,Mary Walker School District,Mary Walker,,"500 N 4TH P.O. Box 159, SPRINGDALE, Washington, 99173-0159","500 N 4TH P.O. Box 159, SPRINGDALE, Washington, 99173-0159",Rick  Winters,rwinters@marywalker.org,(509)258-4534,https://marywalker.org/,Stevens,Stevens,5,7,Public School District,5,6041291338.03796,528170.311040569
243,100173,32801,101,Educational Service District 101,33211,Northport School District,Northport,,"404 10TH ST, NORTHPORT, Washington, 99157-1280","404 10TH ST PO Box 1280, NORTHPORT, Washington, 99157-1280",Don Patrick Baribault,dbaribault@northportschools.org,(509)732-4430,https://www.northportschools.org/,Stevens,Stevens,5,7,Public School District,5,9408749534.02808,510676.100134119
244,100118,32801,101,Educational Service District 101,33212,Kettle Falls School District,Kettle Falls,,"325 East 3rd Ave Suite C, KETTLE FALLS, Washington, 99141-0458","PO BOX 458, KETTLE FALLS, Washington, 99141-0458",Michael  Olsen,molsen@kfschools.org,(509)738-6625 Ext.599,https://www.kfschools.org/,Stevens,"Ferry, Stevens",5,7,Public School District,5,11802136410.3911,690889.750973458
245,100304,34801,113,Capital Region ESD 113,34002,Yelm School District,Yelm,,"107 1st N., YELM, Washington, 98597-0476","PO BOX 476, YELM, Washington, 98597-0476",BRIAN  WHARTON,BRIAN_WHARTON@YCS.WEDNET.EDU,(360)458-1900,https://www.ycs.wednet.edu/,Thurston,"Pierce, Thurston","3, 8, 10",2,Public School District,1,5516972624.19092,566370.642888755
246,100172,34801,113,Capital Region ESD 113,34003,North Thurston Public Schools,North Thurston,,"305 COLLEGE ST NE, LACEY, Washington, 98516-5390","305 COLLEGE ST NE, LACEY, Washington, 98516-5390",Debra  Clemens,superintendent@nthurston.k12.wa.us,(360)412-4413,https://www.nthurston.k12.wa.us/,Thurston,Thurston,10,"2, 22",Public School District,1,2434270626.54431,278469.968778412
247,100273,34801,113,Capital Region ESD 113,34033,Tumwater School District,Tumwater,,"621 LINWOOD AVE SW, TUMWATER, Washington, 98512-8499","621 LINWOOD AVE SW, TUMWATER, Washington, 98512-8499",Sean  Dotson,sean.dotson@tumwater.k12.wa.us,(360)709-7000,https://www.tumwater.k12.wa.us,Thurston,Thurston,10,"20, 22, 35",Public School District,1,3215685147.22491,407083.816964688
248,100182,34801,113,Capital Region ESD 113,34111,Olympia School District,Olympia,,"111 BETHEL ST. NE, OLYMPIA, Washington, 98506","111 BETHEL ST. NE, OLYMPIA, Washington, 98506",Patrick  Murphy,pmurphy@osd.wednet.edu,(360)596-6117,https://osd.wednet.edu/,Thurston,Thurston,10,"22, 35",Public School District,1,2604863036.31415,398145.169565402
249,100213,34801,113,Capital Region ESD 113,34307,Rainier School District,Rainier,,"207 CENTRE ST, RAINIER, Washington, 98576-0098","PO BOX 98, RAINIER, Washington, 98576-0098",Bryon  Bahr,bahrb@rainier.wednet.edu,(360)446-2207,https://www.rainier.wednet.edu,Thurston,Thurston,"3, 10",2,Public School District,1,1548528380.34399,250512.134488967
250,100102,34801,113,Capital Region ESD 113,34324,Griffin School District,Griffin,,"6530 33rd Ave. NW, OLYMPIA, Washington, 98502","6530 33RD AVE NW, OLYMPIA, Washington, 98502-9599",Greg  Woods,gwoods@griffinschool.us,(360)866-5903,https://www.griffinschool.us,Thurston,Thurston,10,35,Public School District,1,1173555638.85168,238951.389192026
251,100223,34801,113,Capital Region ESD 113,34401,Rochester School District,Rochester,,"10140 HIGHWAY 12 SW, ROCHESTER, Washington, 98579-9601","10140 HIGHWAY 12 SW, ROCHESTER, Washington, 98579-9601",Kimberly M. Fry,kfry@rochester.wednet.edu,(360)273-5536,https://www.rochester.wednet.edu,Thurston,"Grays Harbor, Lewis, Thurston","3, 10",20,Public School District,1,2975883455.37277,370397.377544117
252,100265,34801,113,Capital Region ESD 113,34402,Tenino School District,Tenino,,"301 OLD HWY 99 N, TENINO, Washington, 98589-4024","PO BOX 4024, TENINO, Washington, 98589-4024",Joseph  Belmonte,belmontej@tenino.k12.wa.us,(360)264-3400,https://www.teninosd.org/,Thurston,Thurston,"3, 10",20,Public School District,1,3070802127.52374,372754.68226059
253,100280,06801,112,Educational Service District 112,35200,Wahkiakum School District,Wahkiakum,,"500 S. Third St, Cathlamet, Washington, 98612","PO BOX 398, CATHLAMET, Washington, 98612-0398",Brent  Freeman,bfreeman@wahksd.k12.wa.us,(360)795-3971,https://wahksd.k12.wa.us,Wahkiakum,Wahkiakum,3,19,Public School District,1,5966159237.14264,345925.128223025
254,100069,11801,123,Educational Service District 123,36101,Dixie School District,Dixie,,"HWY 12 & BISCUIT RIDGE RD, DIXIE, Washington, 99329-0040","PO BOX 40, DIXIE, Washington, 99329-0040",Jacob D Bang,jbang@dixiesd.org,(509)525-5339,https://www.dixiesd.org/,Walla Walla,Walla Walla,5,16,Public School District,4,1858200551.086,226337.179844341
255,100283,11801,123,Educational Service District 123,36140,Walla Walla Public Schools,Walla Walla,,"364 S PARK ST, WALLA WALLA, Washington, 99362-3249","364 S PARK ST, WALLA WALLA, Washington, 99362-3249",WADE  SMITH,wsmith@wwps.org,(509)526-6715,https://www.wwps.org,Walla Walla,Walla Walla,5,16,Public School District,4,7516186419.24432,574042.472673452
256,100049,11801,123,Educational Service District 123,36250,College Place School District,College Place,,"1755 S College Ave, COLLEGE PLACE, Washington, 99324-1175","1755 S College Ave, COLLEGE PLACE, Washington, 99324-1175",Jim  Fry,jfry@cpps.org,(509)525-4827,https://www.cpps.org,Walla Walla,Walla Walla,5,16,Public School District,4,810224539.78476,154543.746859525
257,100270,11801,123,Educational Service District 123,36300,Touchet School District,Touchet,,"90 CHAMPION ST, TOUCHET, Washington, 99360-9533","P.O. Box 135, TOUCHET, Washington, 99360-9533",  ,,,https://www.touchet.k12.wa.us,Walla Walla,Walla Walla,"4, 5",16,Public School District,4,6050257257.85178,359346.963607153
258,100052,11801,123,Educational Service District 123,36400,Columbia (Walla Walla) School District,Columbia (Walla Walla),,"755 MAPLE ST, BURBANK, Washington, 99323-0548","755 MAPLE ST, BURBANK, Washington, 99323-0548",Todd  Hilberg,todd.hilberg@csd400.org,(509)547-2136,https://www.csd400.org,Walla Walla,Walla Walla,4,16,Public School District,4,3784826558.46222,343171.22773686
259,100282,11801,123,Educational Service District 123,36401,Waitsburg School District,Waitsburg,,"184 Academy Street, WAITSBURG, Washington, 99361-0217","PO BOX 217, WAITSBURG, Washington, 99361-0217",Mark  Pickel,mpickel@waitsburgsd.org,(509)337-6301,https://www.waitsburgsd.org,Walla Walla,"Columbia, Walla Walla",5,16,Public School District,4,4213213123.08466,492209.877243272
260,100204,11801,123,Educational Service District 123,36402,Prescott School District,Prescott,,"207 SOUTH A  STREET, PRESCOTT, Washington, 99348-0065","PO Box 65, PRESCOTT, Washington, 99348-0065",Justin  Bradford,jbradford@prescott.k12.wa.us,(509)849-2217,https://www.prescott.k12.wa.us/,Walla Walla,"Columbia, Walla Walla",5,16,Public School District,4,14164116346.2195,640596.954936583
261,100020,29801,189,Northwest Educational Service District 189,37501,Bellingham School District,Bellingham,,"1306 DUPONT ST, BELLINGHAM, Washington, 98225-3118","1306 DUPONT ST, BELLINGHAM, Washington, 98225-3118",Greg  Baker,greg.baker@bellinghamschools.org,(360)676-6501,https://bellinghamschools.org/,Whatcom,Whatcom,"1, 2","40, 42",Public School District,3,3842478241.69373,312716.693227128
262,100087,29801,189,Northwest Educational Service District 189,37502,Ferndale School District,Ferndale,,"6041 VISTA DRIVE, FERNDALE, Washington, 98248-9317","PO Box 698, FERNDALE, Washington, 98248-9317",Linda  Quinn,linda.quinn@ferndalesd.org,(360)383-9207,https://www.ferndalesd.org/,Whatcom,Whatcom,1,42,Public School District,3,5588053366.755,452193.555255096
263,100024,29801,189,Northwest Educational Service District 189,37503,Blaine School District,Blaine,,"765 H Street, BLAINE, Washington, 98230","765 H Street, BLAINE, Washington, 98230",Christopher  Granger,cgranger@blainesd.org,(360)332-5881,https://www.blainesd.org/,Whatcom,Whatcom,1,42,Public School District,3,7044927358.81274,429819.966734337
264,100136,29801,189,Northwest Educational Service District 189,37504,Lynden School District,Lynden,,"516 MAIN ST EDGEWATER LN, LYNDEN, Washington, 98264-9514","516 MAIN ST, LYNDEN, Washington, 98264-9514",James B Frey,freyj@lynden.wednet.edu,(360)354-4443,https://www.lynden.wednet.edu/,Whatcom,Whatcom,1,42,Public School District,3,1913982823.38171,224704.735081208
265,100147,29801,189,Northwest Educational Service District 189,37505,Meridian School District,Meridian,,"214 W LAUREL RD, BELLINGHAM, Washington, 98226-9623","214 W LAUREL RD, BELLINGHAM, Washington, 98226-9623",James  E Everett,jeverett@meridian.wednet.edu,(360)398-7111,https://www.meridian.wednet.edu,Whatcom,Whatcom,"1, 2",42,Public School District,3,1046705242.46704,164164.089972787
266,100166,29801,189,Northwest Educational Service District 189,37506,Nooksack Valley School District,Nooksack Valley,,"3326 E BADGER RD, EVERSON, Washington, 98247-9232","PO BOX 4307, EVERSON, Washington, 98247-9232",Mark  Johnson,mark.johnson@nooksackschools.org,(360)988-4754,https://www.nv.k12.wa.us/,Whatcom,Whatcom,1,42,Public School District,3,4926087623.71997,984378.141887128
267,100156,29801,189,Northwest Educational Service District 189,37507,Mount Baker School District,Mount Baker,,"4956 DEMING RD, DEMING, Washington, 98244-0095","PO BOX 95, DEMING, Washington, 98244-0095",Mary  Sewright,msewright@mtbaker.wednet.edu,(360)383-2000,https://www.mtbaker.wednet.edu/,Whatcom,Whatcom,"1, 2",42,Public School District,3,18457538778.2881,890576.952329112
268,100124,32801,101,Educational Service District 101,38126,LaCrosse School District,LaCrosse,,"111 Hill Avenue, LACROSSE, Washington, 99143","111 Hill Avenue, LACROSSE, Washington, 99143",Doug  Curtis,dcurtis@lacrossesd.k12.wa.us,(509)549-3591,https://www.lacrossesd.k12.wa.us/,Whitman,"Adams, Whitman","4, 5",9,Public School District,5,11622532538.4626,665100.973023758
269,100129,32801,101,Educational Service District 101,38264,Lamont School District,Lamont,,"602 MAIN ST, LAMONT, Washington, 99017-8769","602 MAIN ST, LAMONT, Washington, 99017-8769",Todd  Spear,tspear@lamont.wednet.edu,(509)257-2463,https://www.spraguelamont.org/,Whitman,"Adams, Whitman","4, 5",9,Public School District,5,3991314643.43127,351830.001083257
270,100264,32801,101,Educational Service District 101,38265,Tekoa School District,Tekoa,,"135 N COLLEGE AVE, TEKOA, Washington, 99033-0869","PO BOX 869, TEKOA, Washington, 99033-0869",Mark  Heid,mheid@tekoasd.org,(509)284-3281,http://www.tekoasd.org/,Whitman,"Spokane, Whitman",5,9,Public School District,5,1784905391.04797,212836.772818284
271,100206,32801,101,Educational Service District 101,38267,Pullman School District,Pullman,,"240 SE DEXTER ST, PULLMAN, Washington, 99163-3585","240 SE DEXTER ST, PULLMAN, Washington, 99163-3585",Robert  Maxwell,rmaxwell@psd267.org,(509)332-3144,https://www.pullmanschools.org/,Whitman,Whitman,5,9,Public School District,5,5768393020.28223,419969.735152814
272,100048,32801,101,Educational Service District 101,38300,Colfax School District,Colfax,,"1207 N MORTON ST, COLFAX, Washington, 99111-2198","1207 N MORTON ST, COLFAX, Washington, 99111-2198",Jerry  Pugh,jerry.pugh@csd300.com,(509)397-3042,https://www.csd300.org,Whitman,Whitman,5,9,Public School District,5,8981206343.87573,691589.132720718
273,100194,32801,101,Educational Service District 101,38301,Palouse School District,Palouse,,"600 E ALDER ST, PALOUSE, Washington, 99161-8780","600 E ALDER ST, PALOUSE, Washington, 99161-8780",Calvin Leon Johnson,cjohnson@garpal.net,(509)878-1921,https://www.garpal.net/,Whitman,Whitman,5,9,Public School District,5,1884704267.89172,237590.516587951
274,100092,32801,101,Educational Service District 101,38302,Garfield School District,Garfield,,"810 N THIRD ST, GARFIELD, Washington, 99130-0398","PO BOX 398, GARFIELD, Washington, 99130-0398",Zane   Wells,zwells@garpal.wednet.edu,(509)635-1331,https://www.garpal.net/,Whitman,Whitman,5,9,Public School District,5,2043642222.27002,261877.243216841
275,100255,32801,101,Educational Service District 101,38304,Steptoe School District,Steptoe,,"12 TENNESSEE ST, STEPTOE, Washington, 99174-3138","PO BOX 138, Steptoe, Washington, 99174-3138",Eric D Patton,ericp@steptoe.k12.wa.us,(509)397-3119,http://steptoe.org/,Whitman,Whitman,5,9,Public School District,5,1183181680.46204,245138.617938487
276,100050,32801,101,Educational Service District 101,38306,Colton School District,Colton,,"706 UNION, COLTON, Washington, 99113-0109","706 UNION, COLTON, Washington, 99113-0109",Paul  Clark,Paulc@colton.k12.wa.us,(509)229-3385,https://www.colton.k12.wa.us/,Whitman,Whitman,5,9,Public School District,5,4036988007.61957,378046.55700021
277,100078,32801,101,Educational Service District 101,38308,Endicott School District,Endicott,,"308 SCHOOL DR, ENDICOTT, Washington, 99125","308 SCHOOL DR, ENDICOTT, Washington, 99125",Suzanne  Schmick,sschmick@sjeschools.org,(509)657-3523,http://www.sje.wednet.edu,Whitman,"Adams, Whitman",5,9,Public School District,5,6193276752.20972,578915.572775453
278,100225,32801,101,Educational Service District 101,38320,Rosalia School District,Rosalia,,"916 S JOSEPHINE AVE, ROSALIA, Washington, 99170-9550","916 S JOSEPHINE AVE, ROSALIA, Washington, 99170-9550",Richard  Linehan,rlinehan@rosaliaschools.org,(509)523-3061,https://www.rosaliaschools.org,Whitman,"Spokane, Whitman",5,9,Public School District,5,3067413157.37415,547676.825549585
279,100249,32801,101,Educational Service District 101,38322,St. John School District,St. John,,"301 W NOB HL, SAINT JOHN, Washington, 99171-0058","301 W NOB HL, SAINT JOHN, Washington, 99171-0058",  ,,,http://www.sje.wednet.edu,Whitman,"Spokane, Whitman",5,9,Public School District,5,8143150508.30554,629908.256442151
280,100176,32801,101,Educational Service District 101,38324,Oakesdale School District,Oakesdale,,"FIRST & MCCOY, OAKESDALE, Washington, 99158-0228","PO BOX 228, OAKESDALE, Washington, 99158-0228",Jake  Dingman,jdingman@gonighthawks.net,(509)285-5296,https://www.gonighthawks.net/,Whitman,Whitman,5,9,Public School District,5,3492948875.42126,421465.663607348
281,100274,39801,105,Educational Service District 105,39002,Union Gap School District,Union Gap,,"3201 4th Street, UNION GAP, Washington, 98903-1894","3201 4th Street, UNION GAP, Washington, 98903-1894",Lisa  Gredvig,lgredvig@uniongap.org,(509)248-3966,https://www.uniongapschool.org,Yakima,Yakima,4,15,Public School District,4,142920019.155396,78342.6884476669
282,100160,39801,105,Educational Service District 105,39003,Naches Valley School District,Naches Valley,,"24 SHAFER AVE, NACHES, Washington, 98937-9744","PO BOX 99, NACHES, Washington, 98937-9744",ROBERT  BOWMAN,RBOWMAN@NVSD.ORG,(509)653-2220,http://www.nvsd.org/,Yakima,"Kittitas, Yakima","4, 8",14,Public School District,4,25893666848.792,998406.784443512
283,100303,39801,105,Educational Service District 105,39007,Yakima School District,Yakima,,"104 N 4TH AVE, YAKIMA, Washington, 98902-2636","104 N 4TH AVE, YAKIMA, Washington, 98902-2636",Trevor  Greene,greene.trevor@yakimaschools.org,(509)573-7001,https://www.ysd7.org/,Yakima,Yakima,4,"14, 15",Public School District,4,663873272.511475,157300.814239884
284,100071,39801,105,Educational Service District 105,39090,East Valley School District (Yakima),East Valley (Yakima),,"2002 BEAUDRY RD, YAKIMA, Washington, 98901-8012","2002 BEAUDRY RD, YAKIMA, Washington, 98901-8012",John  Schieche,schieche.john@evsd90.org,(509)573-7320,https://www.evsd90.org,Yakima,Yakima,4,15,Public School District,4,4802773966.55707,435821.219910447
285,100231,39801,105,Educational Service District 105,39119,Selah School District,Selah,,"316 W NACHES AVE , SELAH, Washington, 98942-1117","316 W NACHES AVE , SELAH, Washington, 98942-1117",Shane  Backlund,ShaneBacklund@selah.k12.wa.us,(509)698-8002,https://www.selahschools.org/,Yakima,"Kittitas, Yakima","4, 8","13, 15",Public School District,4,9767405675.05688,620123.850074573
286,100137,39801,105,Educational Service District 105,39120,Mabton School District,Mabton,,"306 N MAIN, MABTON, Washington, 98935-0037","PO BOX 37, MABTON, Washington, 98935-0037",Joseph Richard Castilleja,castillejaj@msd120.org,(509)894-4852,https://www.msd120.org,Yakima,Yakima,4,15,Public School District,4,4166807704.22638,293561.914901941
287,100096,39801,105,Educational Service District 105,39200,Grandview School District,Grandview,,"913 W 2ND ST, GRANDVIEW, Washington, 98930-1202","913 W 2ND ST, GRANDVIEW, Washington, 98930-1202",Henry M Strom,hmstrom@gsd200.org,(509)882-8514,https://www.gsd200.org,Yakima,"Benton, c",4,15,Public School District,4,1110492840.06317,186470.937454696
288,100260,39801,105,Educational Service District 105,39201,Sunnyside School District,Sunnyside,,"1110 S 6th St, SUNNYSIDE, Washington, 98944-2197","1110 S 6th St, Sunnyside, Washington, 98944-2197",Jon Kevin McKay,kevin.mckay@sunnysideschools.org,(509)837-5851,https://www.sunnysideschools.org/,Yakima,Yakima,4,15,Public School District,4,5093053536.36084,422695.490480624
289,100269,39801,105,Educational Service District 105,39202,Toppenish School District,Toppenish,,"306 BOLIN DR, TOPPENISH, Washington, 98948-1644","306 BOLIN DR, TOPPENISH, Washington, 98948-1644",John M. Cerna,jcerna@toppenish.wednet.edu,(509)865-8155,https://www.toppenish.wednet.edu/,Yakima,Yakima,4,"15, 17",Public School District,4,7492344503.73862,561760.670317353
290,100104,39801,105,Educational Service District 105,39203,Highland School District,Highland,,"17000 SUMMITVIEW RD, COWICHE, Washington, 98923-0038","PO BOX 38, COWICHE, Washington, 98923-0038",Mark  Anderson,manderson@highland.wednet.edu,(509)678-8635,http://www.highland.wednet.edu,Yakima,Yakima,4,14,Public School District,4,3095999961.24963,340939.133306434
291,100097,39801,105,Educational Service District 105,39204,Granger School District,Granger,,"701 E AVE, GRANGER, Washington, 98932-0400","701 E AVE, GRANGER, Washington, 98932-0400",Brian  Hart,hartb@gsd.wednet.edu,(509)854-1515,https://www.gsd.wednet.edu,Yakima,Yakima,4,15,Public School District,4,6624347809.9595,493350.585794017
292,100305,39801,105,Educational Service District 105,39205,Zillah School District,Zillah,,"213 4TH AVE, ZILLAH, Washington, 98953-9533","213 4TH AVE, ZILLAH, Washington, 98953-9533",Doug  Burge,doug.burge@zillahschools.org,(509)829-5911,https://www.zillahschools.org/,Yakima,Yakima,4,15,Public School District,4,1231757768.43457,194347.689468781
293,100284,39801,105,Educational Service District 105,39207,Wapato School District,Wapato,,"212 W 3RD ST, WAPATO, Washington, 98951-1308","212 W 3RD ST P O BOX 38, WAPATO, Washington, 98951-1308",EZEQUIEL (Kelly)  Garza,kellyg@wapatosd.org,(509)877-4181,https://www.wapatosd.org,Yakima,Yakima,4,"14, 15",Public School District,4,4882305350.1322,491182.240177163
294,100292,39801,105,Educational Service District 105,39208,West Valley School District (Yakima),West Valley (Yakima),,"8902 ZIER RD, YAKIMA, Washington, 98908-9240","8902 ZIER RD, YAKIMA, Washington, 98908-9240",MICHAEL LEE BROPHY,brophym@wvsd208.org,(509)972-6005,https://www.wvsd208.org/,Yakima,Yakima,4,14,Public School District,4,7560973940.31036,588278.838273462
295,100155,39801,105,Educational Service District 105,39209,Mount Adams School District,Mount Adams,,"621 SIGNAL PEAK RD, WHITE SWAN, Washington, 98952-0578","PO BOX 578, WHITE SWAN, Washington, 98952-0578",Curt  Guaglianone,cguaglianone@masd209.org,(509)874-2611,https://www.masd209.org/,Yakima,Yakima,4,14,Public School District,4,37658378154.6765,891408.906602875
